{
"type": "FeatureCollection",
"name": "nova_heat_stress_normalized",
"crs": { "type": "name", "properties": { "name": "urn:ogc:def:crs:OGC:1.3:CRS84" } },
"features": [
{ "type": "Feature", "properties": { "heat_normalized": 0.2669 }, "geometry": { "type": "Point", "coordinates": [ -77.708333332954993, 39.291666666581996 ] } },
{ "type": "Feature", "properties": { "heat_normalized": 0.6054 }, "geometry": { "type": "Point", "coordinates": [ -77.666666666287995, 39.291666666581996 ] } },
{ "type": "Feature", "properties": { "heat_normalized": 0.6668 }, "geometry": { "type": "Point", "coordinates": [ -77.624999999620997, 39.291666666581996 ] } },
{ "type": "Feature", "properties": { "heat_normalized": 0.7272 }, "geometry": { "type": "Point", "coordinates": [ -77.583333332953998, 39.291666666581996 ] } },
{ "type": "Feature", "properties": { "heat_normalized": 0.2031 }, "geometry": { "type": "Point", "coordinates": [ -77.749999999621991, 39.249999999914998 ] } },
{ "type": "Feature", "properties": { "heat_normalized": 0.2622 }, "geometry": { "type": "Point", "coordinates": [ -77.708333332954993, 39.249999999914998 ] } },
{ "type": "Feature", "properties": { "heat_normalized": 0.5932 }, "geometry": { "type": "Point", "coordinates": [ -77.666666666287995, 39.249999999914998 ] } },
{ "type": "Feature", "properties": { "heat_normalized": 0.6768 }, "geometry": { "type": "Point", "coordinates": [ -77.624999999620997, 39.249999999914998 ] } },
{ "type": "Feature", "properties": { "heat_normalized": 0.766 }, "geometry": { "type": "Point", "coordinates": [ -77.583333332953998, 39.249999999914998 ] } },
{ "type": "Feature", "properties": { "heat_normalized": 0.7651 }, "geometry": { "type": "Point", "coordinates": [ -77.541666666287, 39.249999999914998 ] } },
{ "type": "Feature", "properties": { "heat_normalized": 0.8842 }, "geometry": { "type": "Point", "coordinates": [ -77.499999999620002, 39.249999999914998 ] } },
{ "type": "Feature", "properties": { "heat_normalized": 0.0413 }, "geometry": { "type": "Point", "coordinates": [ -77.79166666628899, 39.208333333248 ] } },
{ "type": "Feature", "properties": { "heat_normalized": 0.3829 }, "geometry": { "type": "Point", "coordinates": [ -77.749999999621991, 39.208333333248 ] } },
{ "type": "Feature", "properties": { "heat_normalized": 0.4206 }, "geometry": { "type": "Point", "coordinates": [ -77.708333332954993, 39.208333333248 ] } },
{ "type": "Feature", "properties": { "heat_normalized": 0.6417 }, "geometry": { "type": "Point", "coordinates": [ -77.666666666287995, 39.208333333248 ] } },
{ "type": "Feature", "properties": { "heat_normalized": 0.7507 }, "geometry": { "type": "Point", "coordinates": [ -77.624999999620997, 39.208333333248 ] } },
{ "type": "Feature", "properties": { "heat_normalized": 0.5981 }, "geometry": { "type": "Point", "coordinates": [ -77.583333332953998, 39.208333333248 ] } },
{ "type": "Feature", "properties": { "heat_normalized": 0.8227 }, "geometry": { "type": "Point", "coordinates": [ -77.541666666287, 39.208333333248 ] } },
{ "type": "Feature", "properties": { "heat_normalized": 0.8274 }, "geometry": { "type": "Point", "coordinates": [ -77.499999999620002, 39.208333333248 ] } },
{ "type": "Feature", "properties": { "heat_normalized": 0.0629 }, "geometry": { "type": "Point", "coordinates": [ -77.79166666628899, 39.166666666580994 ] } },
{ "type": "Feature", "properties": { "heat_normalized": 0.382 }, "geometry": { "type": "Point", "coordinates": [ -77.749999999621991, 39.166666666580994 ] } },
{ "type": "Feature", "properties": { "heat_normalized": 0.528 }, "geometry": { "type": "Point", "coordinates": [ -77.708333332954993, 39.166666666580994 ] } },
{ "type": "Feature", "properties": { "heat_normalized": 0.6303 }, "geometry": { "type": "Point", "coordinates": [ -77.666666666287995, 39.166666666580994 ] } },
{ "type": "Feature", "properties": { "heat_normalized": 0.6921 }, "geometry": { "type": "Point", "coordinates": [ -77.624999999620997, 39.166666666580994 ] } },
{ "type": "Feature", "properties": { "heat_normalized": 0.5881 }, "geometry": { "type": "Point", "coordinates": [ -77.583333332953998, 39.166666666580994 ] } },
{ "type": "Feature", "properties": { "heat_normalized": 0.9348 }, "geometry": { "type": "Point", "coordinates": [ -77.541666666287, 39.166666666580994 ] } },
{ "type": "Feature", "properties": { "heat_normalized": 0.0 }, "geometry": { "type": "Point", "coordinates": [ -77.833333332955988, 39.124999999913996 ] } },
{ "type": "Feature", "properties": { "heat_normalized": 0.3721 }, "geometry": { "type": "Point", "coordinates": [ -77.79166666628899, 39.124999999913996 ] } },
{ "type": "Feature", "properties": { "heat_normalized": 0.5038 }, "geometry": { "type": "Point", "coordinates": [ -77.749999999621991, 39.124999999913996 ] } },
{ "type": "Feature", "properties": { "heat_normalized": 0.5161 }, "geometry": { "type": "Point", "coordinates": [ -77.708333332954993, 39.124999999913996 ] } },
{ "type": "Feature", "properties": { "heat_normalized": 0.5782 }, "geometry": { "type": "Point", "coordinates": [ -77.666666666287995, 39.124999999913996 ] } },
{ "type": "Feature", "properties": { "heat_normalized": 0.4837 }, "geometry": { "type": "Point", "coordinates": [ -77.624999999620997, 39.124999999913996 ] } },
{ "type": "Feature", "properties": { "heat_normalized": 0.6951 }, "geometry": { "type": "Point", "coordinates": [ -77.583333332953998, 39.124999999913996 ] } },
{ "type": "Feature", "properties": { "heat_normalized": 0.8514 }, "geometry": { "type": "Point", "coordinates": [ -77.541666666287, 39.124999999913996 ] } },
{ "type": "Feature", "properties": { "heat_normalized": 0.2767 }, "geometry": { "type": "Point", "coordinates": [ -77.833333332955988, 39.083333333246998 ] } },
{ "type": "Feature", "properties": { "heat_normalized": 0.5669 }, "geometry": { "type": "Point", "coordinates": [ -77.79166666628899, 39.083333333246998 ] } },
{ "type": "Feature", "properties": { "heat_normalized": 0.5593 }, "geometry": { "type": "Point", "coordinates": [ -77.749999999621991, 39.083333333246998 ] } },
{ "type": "Feature", "properties": { "heat_normalized": 0.5958 }, "geometry": { "type": "Point", "coordinates": [ -77.708333332954993, 39.083333333246998 ] } },
{ "type": "Feature", "properties": { "heat_normalized": 0.5721 }, "geometry": { "type": "Point", "coordinates": [ -77.666666666287995, 39.083333333246998 ] } },
{ "type": "Feature", "properties": { "heat_normalized": 0.5686 }, "geometry": { "type": "Point", "coordinates": [ -77.624999999620997, 39.083333333246998 ] } },
{ "type": "Feature", "properties": { "heat_normalized": 0.7611 }, "geometry": { "type": "Point", "coordinates": [ -77.583333332953998, 39.083333333246998 ] } },
{ "type": "Feature", "properties": { "heat_normalized": 0.7914 }, "geometry": { "type": "Point", "coordinates": [ -77.541666666287, 39.083333333246998 ] } },
{ "type": "Feature", "properties": { "heat_normalized": 0.7951 }, "geometry": { "type": "Point", "coordinates": [ -77.499999999620002, 39.083333333246998 ] } },
{ "type": "Feature", "properties": { "heat_normalized": 0.2682 }, "geometry": { "type": "Point", "coordinates": [ -77.874999999623, 39.041666666579999 ] } },
{ "type": "Feature", "properties": { "heat_normalized": 0.5364 }, "geometry": { "type": "Point", "coordinates": [ -77.833333332955988, 39.041666666579999 ] } },
{ "type": "Feature", "properties": { "heat_normalized": 0.6344 }, "geometry": { "type": "Point", "coordinates": [ -77.79166666628899, 39.041666666579999 ] } },
{ "type": "Feature", "properties": { "heat_normalized": 0.69 }, "geometry": { "type": "Point", "coordinates": [ -77.749999999621991, 39.041666666579999 ] } },
{ "type": "Feature", "properties": { "heat_normalized": 0.7079 }, "geometry": { "type": "Point", "coordinates": [ -77.708333332954993, 39.041666666579999 ] } },
{ "type": "Feature", "properties": { "heat_normalized": 0.7471 }, "geometry": { "type": "Point", "coordinates": [ -77.666666666287995, 39.041666666579999 ] } },
{ "type": "Feature", "properties": { "heat_normalized": 0.7596 }, "geometry": { "type": "Point", "coordinates": [ -77.624999999620997, 39.041666666579999 ] } },
{ "type": "Feature", "properties": { "heat_normalized": 0.7407 }, "geometry": { "type": "Point", "coordinates": [ -77.583333332953998, 39.041666666579999 ] } },
{ "type": "Feature", "properties": { "heat_normalized": 0.7528 }, "geometry": { "type": "Point", "coordinates": [ -77.541666666287, 39.041666666579999 ] } },
{ "type": "Feature", "properties": { "heat_normalized": 0.752 }, "geometry": { "type": "Point", "coordinates": [ -77.499999999620002, 39.041666666579999 ] } },
{ "type": "Feature", "properties": { "heat_normalized": 0.7855 }, "geometry": { "type": "Point", "coordinates": [ -77.458333332953003, 39.041666666579999 ] } },
{ "type": "Feature", "properties": { "heat_normalized": 0.7181 }, "geometry": { "type": "Point", "coordinates": [ -77.416666666286005, 39.041666666579999 ] } },
{ "type": "Feature", "properties": { "heat_normalized": 0.71 }, "geometry": { "type": "Point", "coordinates": [ -77.374999999619007, 39.041666666579999 ] } },
{ "type": "Feature", "properties": { "heat_normalized": 0.6022 }, "geometry": { "type": "Point", "coordinates": [ -77.333333332951995, 39.041666666579999 ] } },
{ "type": "Feature", "properties": { "heat_normalized": 0.6429 }, "geometry": { "type": "Point", "coordinates": [ -77.291666666284996, 39.041666666579999 ] } },
{ "type": "Feature", "properties": { "heat_normalized": 0.5932 }, "geometry": { "type": "Point", "coordinates": [ -77.874999999623, 38.999999999913001 ] } },
{ "type": "Feature", "properties": { "heat_normalized": 0.6375 }, "geometry": { "type": "Point", "coordinates": [ -77.833333332955988, 38.999999999913001 ] } },
{ "type": "Feature", "properties": { "heat_normalized": 0.6816 }, "geometry": { "type": "Point", "coordinates": [ -77.79166666628899, 38.999999999913001 ] } },
{ "type": "Feature", "properties": { "heat_normalized": 0.7404 }, "geometry": { "type": "Point", "coordinates": [ -77.749999999621991, 38.999999999913001 ] } },
{ "type": "Feature", "properties": { "heat_normalized": 0.762 }, "geometry": { "type": "Point", "coordinates": [ -77.708333332954993, 38.999999999913001 ] } },
{ "type": "Feature", "properties": { "heat_normalized": 0.6451 }, "geometry": { "type": "Point", "coordinates": [ -77.666666666287995, 38.999999999913001 ] } },
{ "type": "Feature", "properties": { "heat_normalized": 0.7594 }, "geometry": { "type": "Point", "coordinates": [ -77.624999999620997, 38.999999999913001 ] } },
{ "type": "Feature", "properties": { "heat_normalized": 0.6965 }, "geometry": { "type": "Point", "coordinates": [ -77.583333332953998, 38.999999999913001 ] } },
{ "type": "Feature", "properties": { "heat_normalized": 0.7136 }, "geometry": { "type": "Point", "coordinates": [ -77.541666666287, 38.999999999913001 ] } },
{ "type": "Feature", "properties": { "heat_normalized": 0.7194 }, "geometry": { "type": "Point", "coordinates": [ -77.499999999620002, 38.999999999913001 ] } },
{ "type": "Feature", "properties": { "heat_normalized": 0.744 }, "geometry": { "type": "Point", "coordinates": [ -77.458333332953003, 38.999999999913001 ] } },
{ "type": "Feature", "properties": { "heat_normalized": 0.6291 }, "geometry": { "type": "Point", "coordinates": [ -77.416666666286005, 38.999999999913001 ] } },
{ "type": "Feature", "properties": { "heat_normalized": 0.6203 }, "geometry": { "type": "Point", "coordinates": [ -77.374999999619007, 38.999999999913001 ] } },
{ "type": "Feature", "properties": { "heat_normalized": 0.4554 }, "geometry": { "type": "Point", "coordinates": [ -77.333333332951995, 38.999999999913001 ] } },
{ "type": "Feature", "properties": { "heat_normalized": 0.4673 }, "geometry": { "type": "Point", "coordinates": [ -77.291666666284996, 38.999999999913001 ] } },
{ "type": "Feature", "properties": { "heat_normalized": 0.7485 }, "geometry": { "type": "Point", "coordinates": [ -77.708333332954993, 38.958333333245996 ] } },
{ "type": "Feature", "properties": { "heat_normalized": 0.6438 }, "geometry": { "type": "Point", "coordinates": [ -77.666666666287995, 38.958333333245996 ] } },
{ "type": "Feature", "properties": { "heat_normalized": 0.6618 }, "geometry": { "type": "Point", "coordinates": [ -77.624999999620997, 38.958333333245996 ] } },
{ "type": "Feature", "properties": { "heat_normalized": 0.6898 }, "geometry": { "type": "Point", "coordinates": [ -77.583333332953998, 38.958333333245996 ] } },
{ "type": "Feature", "properties": { "heat_normalized": 0.6995 }, "geometry": { "type": "Point", "coordinates": [ -77.541666666287, 38.958333333245996 ] } },
{ "type": "Feature", "properties": { "heat_normalized": 0.7501 }, "geometry": { "type": "Point", "coordinates": [ -77.499999999620002, 38.958333333245996 ] } },
{ "type": "Feature", "properties": { "heat_normalized": 0.7948 }, "geometry": { "type": "Point", "coordinates": [ -77.458333332953003, 38.958333333245996 ] } },
{ "type": "Feature", "properties": { "heat_normalized": 0.6689 }, "geometry": { "type": "Point", "coordinates": [ -77.416666666286005, 38.958333333245996 ] } },
{ "type": "Feature", "properties": { "heat_normalized": 0.5207 }, "geometry": { "type": "Point", "coordinates": [ -77.374999999619007, 38.958333333245996 ] } },
{ "type": "Feature", "properties": { "heat_normalized": 0.4505 }, "geometry": { "type": "Point", "coordinates": [ -77.333333332951995, 38.958333333245996 ] } },
{ "type": "Feature", "properties": { "heat_normalized": 0.4935 }, "geometry": { "type": "Point", "coordinates": [ -77.291666666284996, 38.958333333245996 ] } },
{ "type": "Feature", "properties": { "heat_normalized": 0.4344 }, "geometry": { "type": "Point", "coordinates": [ -77.249999999617998, 38.958333333245996 ] } },
{ "type": "Feature", "properties": { "heat_normalized": 0.612 }, "geometry": { "type": "Point", "coordinates": [ -77.208333332951, 38.958333333245996 ] } },
{ "type": "Feature", "properties": { "heat_normalized": 0.7426 }, "geometry": { "type": "Point", "coordinates": [ -77.166666666283987, 38.958333333245996 ] } },
{ "type": "Feature", "properties": { "heat_normalized": 0.7 }, "geometry": { "type": "Point", "coordinates": [ -77.624999999620997, 38.916666666578998 ] } },
{ "type": "Feature", "properties": { "heat_normalized": 0.6774 }, "geometry": { "type": "Point", "coordinates": [ -77.583333332953998, 38.916666666578998 ] } },
{ "type": "Feature", "properties": { "heat_normalized": 0.6664 }, "geometry": { "type": "Point", "coordinates": [ -77.541666666287, 38.916666666578998 ] } },
{ "type": "Feature", "properties": { "heat_normalized": 0.7158 }, "geometry": { "type": "Point", "coordinates": [ -77.499999999620002, 38.916666666578998 ] } },
{ "type": "Feature", "properties": { "heat_normalized": 0.8057 }, "geometry": { "type": "Point", "coordinates": [ -77.458333332953003, 38.916666666578998 ] } },
{ "type": "Feature", "properties": { "heat_normalized": 0.6911 }, "geometry": { "type": "Point", "coordinates": [ -77.416666666286005, 38.916666666578998 ] } },
{ "type": "Feature", "properties": { "heat_normalized": 0.4774 }, "geometry": { "type": "Point", "coordinates": [ -77.374999999619007, 38.916666666578998 ] } },
{ "type": "Feature", "properties": { "heat_normalized": 0.4707 }, "geometry": { "type": "Point", "coordinates": [ -77.333333332951995, 38.916666666578998 ] } },
{ "type": "Feature", "properties": { "heat_normalized": 0.3226 }, "geometry": { "type": "Point", "coordinates": [ -77.291666666284996, 38.916666666578998 ] } },
{ "type": "Feature", "properties": { "heat_normalized": 0.2367 }, "geometry": { "type": "Point", "coordinates": [ -77.249999999617998, 38.916666666578998 ] } },
{ "type": "Feature", "properties": { "heat_normalized": 0.4395 }, "geometry": { "type": "Point", "coordinates": [ -77.208333332951, 38.916666666578998 ] } },
{ "type": "Feature", "properties": { "heat_normalized": 0.6177 }, "geometry": { "type": "Point", "coordinates": [ -77.166666666283987, 38.916666666578998 ] } },
{ "type": "Feature", "properties": { "heat_normalized": 0.7589 }, "geometry": { "type": "Point", "coordinates": [ -77.124999999616989, 38.916666666578998 ] } },
{ "type": "Feature", "properties": { "heat_normalized": 0.5122 }, "geometry": { "type": "Point", "coordinates": [ -77.666666666287995, 38.874999999911999 ] } },
{ "type": "Feature", "properties": { "heat_normalized": 0.6788 }, "geometry": { "type": "Point", "coordinates": [ -77.624999999620997, 38.874999999911999 ] } },
{ "type": "Feature", "properties": { "heat_normalized": 0.7373 }, "geometry": { "type": "Point", "coordinates": [ -77.583333332953998, 38.874999999911999 ] } },
{ "type": "Feature", "properties": { "heat_normalized": 0.7577 }, "geometry": { "type": "Point", "coordinates": [ -77.541666666287, 38.874999999911999 ] } },
{ "type": "Feature", "properties": { "heat_normalized": 0.7866 }, "geometry": { "type": "Point", "coordinates": [ -77.499999999620002, 38.874999999911999 ] } },
{ "type": "Feature", "properties": { "heat_normalized": 0.7836 }, "geometry": { "type": "Point", "coordinates": [ -77.458333332953003, 38.874999999911999 ] } },
{ "type": "Feature", "properties": { "heat_normalized": 0.6246 }, "geometry": { "type": "Point", "coordinates": [ -77.416666666286005, 38.874999999911999 ] } },
{ "type": "Feature", "properties": { "heat_normalized": 0.4248 }, "geometry": { "type": "Point", "coordinates": [ -77.374999999619007, 38.874999999911999 ] } },
{ "type": "Feature", "properties": { "heat_normalized": 0.4057 }, "geometry": { "type": "Point", "coordinates": [ -77.333333332951995, 38.874999999911999 ] } },
{ "type": "Feature", "properties": { "heat_normalized": 0.3191 }, "geometry": { "type": "Point", "coordinates": [ -77.291666666284996, 38.874999999911999 ] } },
{ "type": "Feature", "properties": { "heat_normalized": 0.348 }, "geometry": { "type": "Point", "coordinates": [ -77.249999999617998, 38.874999999911999 ] } },
{ "type": "Feature", "properties": { "heat_normalized": 0.4857 }, "geometry": { "type": "Point", "coordinates": [ -77.208333332951, 38.874999999911999 ] } },
{ "type": "Feature", "properties": { "heat_normalized": 0.608 }, "geometry": { "type": "Point", "coordinates": [ -77.166666666283987, 38.874999999911999 ] } },
{ "type": "Feature", "properties": { "heat_normalized": 0.7312 }, "geometry": { "type": "Point", "coordinates": [ -77.124999999616989, 38.874999999911999 ] } },
{ "type": "Feature", "properties": { "heat_normalized": 0.7838 }, "geometry": { "type": "Point", "coordinates": [ -77.083333332949991, 38.874999999911999 ] } },
{ "type": "Feature", "properties": { "heat_normalized": 0.459 }, "geometry": { "type": "Point", "coordinates": [ -77.708333332954993, 38.833333333244994 ] } },
{ "type": "Feature", "properties": { "heat_normalized": 0.6096 }, "geometry": { "type": "Point", "coordinates": [ -77.666666666287995, 38.833333333244994 ] } },
{ "type": "Feature", "properties": { "heat_normalized": 0.6953 }, "geometry": { "type": "Point", "coordinates": [ -77.624999999620997, 38.833333333244994 ] } },
{ "type": "Feature", "properties": { "heat_normalized": 0.7765 }, "geometry": { "type": "Point", "coordinates": [ -77.583333332953998, 38.833333333244994 ] } },
{ "type": "Feature", "properties": { "heat_normalized": 0.8386 }, "geometry": { "type": "Point", "coordinates": [ -77.541666666287, 38.833333333244994 ] } },
{ "type": "Feature", "properties": { "heat_normalized": 0.851 }, "geometry": { "type": "Point", "coordinates": [ -77.499999999620002, 38.833333333244994 ] } },
{ "type": "Feature", "properties": { "heat_normalized": 0.8144 }, "geometry": { "type": "Point", "coordinates": [ -77.458333332953003, 38.833333333244994 ] } },
{ "type": "Feature", "properties": { "heat_normalized": 0.6535 }, "geometry": { "type": "Point", "coordinates": [ -77.416666666286005, 38.833333333244994 ] } },
{ "type": "Feature", "properties": { "heat_normalized": 0.4806 }, "geometry": { "type": "Point", "coordinates": [ -77.374999999619007, 38.833333333244994 ] } },
{ "type": "Feature", "properties": { "heat_normalized": 0.4237 }, "geometry": { "type": "Point", "coordinates": [ -77.333333332951995, 38.833333333244994 ] } },
{ "type": "Feature", "properties": { "heat_normalized": 0.3989 }, "geometry": { "type": "Point", "coordinates": [ -77.291666666284996, 38.833333333244994 ] } },
{ "type": "Feature", "properties": { "heat_normalized": 0.4968 }, "geometry": { "type": "Point", "coordinates": [ -77.249999999617998, 38.833333333244994 ] } },
{ "type": "Feature", "properties": { "heat_normalized": 0.6116 }, "geometry": { "type": "Point", "coordinates": [ -77.208333332951, 38.833333333244994 ] } },
{ "type": "Feature", "properties": { "heat_normalized": 0.6994 }, "geometry": { "type": "Point", "coordinates": [ -77.166666666283987, 38.833333333244994 ] } },
{ "type": "Feature", "properties": { "heat_normalized": 0.7647 }, "geometry": { "type": "Point", "coordinates": [ -77.124999999616989, 38.833333333244994 ] } },
{ "type": "Feature", "properties": { "heat_normalized": 0.7893 }, "geometry": { "type": "Point", "coordinates": [ -77.083333332949991, 38.833333333244994 ] } },
{ "type": "Feature", "properties": { "heat_normalized": 0.8337 }, "geometry": { "type": "Point", "coordinates": [ -77.041666666282993, 38.833333333244994 ] } },
{ "type": "Feature", "properties": { "heat_normalized": 0.7026 }, "geometry": { "type": "Point", "coordinates": [ -77.666666666287995, 38.791666666577996 ] } },
{ "type": "Feature", "properties": { "heat_normalized": 0.7226 }, "geometry": { "type": "Point", "coordinates": [ -77.624999999620997, 38.791666666577996 ] } },
{ "type": "Feature", "properties": { "heat_normalized": 0.7452 }, "geometry": { "type": "Point", "coordinates": [ -77.583333332953998, 38.791666666577996 ] } },
{ "type": "Feature", "properties": { "heat_normalized": 0.7857 }, "geometry": { "type": "Point", "coordinates": [ -77.541666666287, 38.791666666577996 ] } },
{ "type": "Feature", "properties": { "heat_normalized": 0.8411 }, "geometry": { "type": "Point", "coordinates": [ -77.499999999620002, 38.791666666577996 ] } },
{ "type": "Feature", "properties": { "heat_normalized": 0.8599 }, "geometry": { "type": "Point", "coordinates": [ -77.458333332953003, 38.791666666577996 ] } },
{ "type": "Feature", "properties": { "heat_normalized": 0.771 }, "geometry": { "type": "Point", "coordinates": [ -77.416666666286005, 38.791666666577996 ] } },
{ "type": "Feature", "properties": { "heat_normalized": 0.7261 }, "geometry": { "type": "Point", "coordinates": [ -77.374999999619007, 38.791666666577996 ] } },
{ "type": "Feature", "properties": { "heat_normalized": 0.5573 }, "geometry": { "type": "Point", "coordinates": [ -77.333333332951995, 38.791666666577996 ] } },
{ "type": "Feature", "properties": { "heat_normalized": 0.5746 }, "geometry": { "type": "Point", "coordinates": [ -77.291666666284996, 38.791666666577996 ] } },
{ "type": "Feature", "properties": { "heat_normalized": 0.6767 }, "geometry": { "type": "Point", "coordinates": [ -77.249999999617998, 38.791666666577996 ] } },
{ "type": "Feature", "properties": { "heat_normalized": 0.7602 }, "geometry": { "type": "Point", "coordinates": [ -77.208333332951, 38.791666666577996 ] } },
{ "type": "Feature", "properties": { "heat_normalized": 0.7842 }, "geometry": { "type": "Point", "coordinates": [ -77.166666666283987, 38.791666666577996 ] } },
{ "type": "Feature", "properties": { "heat_normalized": 0.7959 }, "geometry": { "type": "Point", "coordinates": [ -77.124999999616989, 38.791666666577996 ] } },
{ "type": "Feature", "properties": { "heat_normalized": 0.8316 }, "geometry": { "type": "Point", "coordinates": [ -77.083333332949991, 38.791666666577996 ] } },
{ "type": "Feature", "properties": { "heat_normalized": 0.8105 }, "geometry": { "type": "Point", "coordinates": [ -77.041666666282993, 38.791666666577996 ] } },
{ "type": "Feature", "properties": { "heat_normalized": 0.7562 }, "geometry": { "type": "Point", "coordinates": [ -77.624999999620997, 38.749999999910997 ] } },
{ "type": "Feature", "properties": { "heat_normalized": 0.8206 }, "geometry": { "type": "Point", "coordinates": [ -77.583333332953998, 38.749999999910997 ] } },
{ "type": "Feature", "properties": { "heat_normalized": 0.8268 }, "geometry": { "type": "Point", "coordinates": [ -77.541666666287, 38.749999999910997 ] } },
{ "type": "Feature", "properties": { "heat_normalized": 0.7826 }, "geometry": { "type": "Point", "coordinates": [ -77.499999999620002, 38.749999999910997 ] } },
{ "type": "Feature", "properties": { "heat_normalized": 0.7253 }, "geometry": { "type": "Point", "coordinates": [ -77.458333332953003, 38.749999999910997 ] } },
{ "type": "Feature", "properties": { "heat_normalized": 0.8015 }, "geometry": { "type": "Point", "coordinates": [ -77.416666666286005, 38.749999999910997 ] } },
{ "type": "Feature", "properties": { "heat_normalized": 0.8167 }, "geometry": { "type": "Point", "coordinates": [ -77.374999999619007, 38.749999999910997 ] } },
{ "type": "Feature", "properties": { "heat_normalized": 0.709 }, "geometry": { "type": "Point", "coordinates": [ -77.333333332951995, 38.749999999910997 ] } },
{ "type": "Feature", "properties": { "heat_normalized": 0.7038 }, "geometry": { "type": "Point", "coordinates": [ -77.291666666284996, 38.749999999910997 ] } },
{ "type": "Feature", "properties": { "heat_normalized": 0.7417 }, "geometry": { "type": "Point", "coordinates": [ -77.249999999617998, 38.749999999910997 ] } },
{ "type": "Feature", "properties": { "heat_normalized": 0.8191 }, "geometry": { "type": "Point", "coordinates": [ -77.208333332951, 38.749999999910997 ] } },
{ "type": "Feature", "properties": { "heat_normalized": 0.8168 }, "geometry": { "type": "Point", "coordinates": [ -77.166666666283987, 38.749999999910997 ] } },
{ "type": "Feature", "properties": { "heat_normalized": 0.875 }, "geometry": { "type": "Point", "coordinates": [ -77.124999999616989, 38.749999999910997 ] } },
{ "type": "Feature", "properties": { "heat_normalized": 0.8286 }, "geometry": { "type": "Point", "coordinates": [ -77.083333332949991, 38.749999999910997 ] } },
{ "type": "Feature", "properties": { "heat_normalized": 0.7737 }, "geometry": { "type": "Point", "coordinates": [ -77.624999999620997, 38.708333333243999 ] } },
{ "type": "Feature", "properties": { "heat_normalized": 0.835 }, "geometry": { "type": "Point", "coordinates": [ -77.583333332953998, 38.708333333243999 ] } },
{ "type": "Feature", "properties": { "heat_normalized": 0.8907 }, "geometry": { "type": "Point", "coordinates": [ -77.541666666287, 38.708333333243999 ] } },
{ "type": "Feature", "properties": { "heat_normalized": 0.8921 }, "geometry": { "type": "Point", "coordinates": [ -77.499999999620002, 38.708333333243999 ] } },
{ "type": "Feature", "properties": { "heat_normalized": 0.837 }, "geometry": { "type": "Point", "coordinates": [ -77.458333332953003, 38.708333333243999 ] } },
{ "type": "Feature", "properties": { "heat_normalized": 0.8465 }, "geometry": { "type": "Point", "coordinates": [ -77.416666666286005, 38.708333333243999 ] } },
{ "type": "Feature", "properties": { "heat_normalized": 0.8594 }, "geometry": { "type": "Point", "coordinates": [ -77.374999999619007, 38.708333333243999 ] } },
{ "type": "Feature", "properties": { "heat_normalized": 0.8434 }, "geometry": { "type": "Point", "coordinates": [ -77.333333332951995, 38.708333333243999 ] } },
{ "type": "Feature", "properties": { "heat_normalized": 0.8082 }, "geometry": { "type": "Point", "coordinates": [ -77.291666666284996, 38.708333333243999 ] } },
{ "type": "Feature", "properties": { "heat_normalized": 0.7756 }, "geometry": { "type": "Point", "coordinates": [ -77.249999999617998, 38.708333333243999 ] } },
{ "type": "Feature", "properties": { "heat_normalized": 0.8274 }, "geometry": { "type": "Point", "coordinates": [ -77.208333332951, 38.708333333243999 ] } },
{ "type": "Feature", "properties": { "heat_normalized": 0.8335 }, "geometry": { "type": "Point", "coordinates": [ -77.166666666283987, 38.708333333243999 ] } },
{ "type": "Feature", "properties": { "heat_normalized": 0.8487 }, "geometry": { "type": "Point", "coordinates": [ -77.124999999616989, 38.708333333243999 ] } },
{ "type": "Feature", "properties": { "heat_normalized": 0.7929 }, "geometry": { "type": "Point", "coordinates": [ -77.083333332949991, 38.708333333243999 ] } },
{ "type": "Feature", "properties": { "heat_normalized": 0.8533 }, "geometry": { "type": "Point", "coordinates": [ -77.583333332953998, 38.666666666577001 ] } },
{ "type": "Feature", "properties": { "heat_normalized": 0.8741 }, "geometry": { "type": "Point", "coordinates": [ -77.541666666287, 38.666666666577001 ] } },
{ "type": "Feature", "properties": { "heat_normalized": 0.8742 }, "geometry": { "type": "Point", "coordinates": [ -77.499999999620002, 38.666666666577001 ] } },
{ "type": "Feature", "properties": { "heat_normalized": 0.8058 }, "geometry": { "type": "Point", "coordinates": [ -77.458333332953003, 38.666666666577001 ] } },
{ "type": "Feature", "properties": { "heat_normalized": 0.7607 }, "geometry": { "type": "Point", "coordinates": [ -77.416666666286005, 38.666666666577001 ] } },
{ "type": "Feature", "properties": { "heat_normalized": 0.7959 }, "geometry": { "type": "Point", "coordinates": [ -77.374999999619007, 38.666666666577001 ] } },
{ "type": "Feature", "properties": { "heat_normalized": 0.7702 }, "geometry": { "type": "Point", "coordinates": [ -77.333333332951995, 38.666666666577001 ] } },
{ "type": "Feature", "properties": { "heat_normalized": 0.8117 }, "geometry": { "type": "Point", "coordinates": [ -77.291666666284996, 38.666666666577001 ] } },
{ "type": "Feature", "properties": { "heat_normalized": 0.8549 }, "geometry": { "type": "Point", "coordinates": [ -77.249999999617998, 38.666666666577001 ] } },
{ "type": "Feature", "properties": { "heat_normalized": 0.813 }, "geometry": { "type": "Point", "coordinates": [ -77.208333332951, 38.666666666577001 ] } },
{ "type": "Feature", "properties": { "heat_normalized": 0.8307 }, "geometry": { "type": "Point", "coordinates": [ -77.166666666283987, 38.666666666577001 ] } },
{ "type": "Feature", "properties": { "heat_normalized": 0.9182 }, "geometry": { "type": "Point", "coordinates": [ -77.541666666287, 38.624999999909996 ] } },
{ "type": "Feature", "properties": { "heat_normalized": 0.8808 }, "geometry": { "type": "Point", "coordinates": [ -77.499999999620002, 38.624999999909996 ] } },
{ "type": "Feature", "properties": { "heat_normalized": 0.8394 }, "geometry": { "type": "Point", "coordinates": [ -77.458333332953003, 38.624999999909996 ] } },
{ "type": "Feature", "properties": { "heat_normalized": 0.8221 }, "geometry": { "type": "Point", "coordinates": [ -77.416666666286005, 38.624999999909996 ] } },
{ "type": "Feature", "properties": { "heat_normalized": 0.8421 }, "geometry": { "type": "Point", "coordinates": [ -77.374999999619007, 38.624999999909996 ] } },
{ "type": "Feature", "properties": { "heat_normalized": 0.8348 }, "geometry": { "type": "Point", "coordinates": [ -77.333333332951995, 38.624999999909996 ] } },
{ "type": "Feature", "properties": { "heat_normalized": 0.8499 }, "geometry": { "type": "Point", "coordinates": [ -77.291666666284996, 38.624999999909996 ] } },
{ "type": "Feature", "properties": { "heat_normalized": 0.8484 }, "geometry": { "type": "Point", "coordinates": [ -77.249999999617998, 38.624999999909996 ] } },
{ "type": "Feature", "properties": { "heat_normalized": 0.9167 }, "geometry": { "type": "Point", "coordinates": [ -77.541666666287, 38.583333333242997 ] } },
{ "type": "Feature", "properties": { "heat_normalized": 0.854 }, "geometry": { "type": "Point", "coordinates": [ -77.499999999620002, 38.583333333242997 ] } },
{ "type": "Feature", "properties": { "heat_normalized": 0.8641 }, "geometry": { "type": "Point", "coordinates": [ -77.458333332953003, 38.583333333242997 ] } },
{ "type": "Feature", "properties": { "heat_normalized": 0.9471 }, "geometry": { "type": "Point", "coordinates": [ -77.416666666286005, 38.583333333242997 ] } },
{ "type": "Feature", "properties": { "heat_normalized": 1.0 }, "geometry": { "type": "Point", "coordinates": [ -77.374999999619007, 38.583333333242997 ] } },
{ "type": "Feature", "properties": { "heat_normalized": 0.9637 }, "geometry": { "type": "Point", "coordinates": [ -77.333333332951995, 38.583333333242997 ] } },
{ "type": "Feature", "properties": { "heat_normalized": 0.9091 }, "geometry": { "type": "Point", "coordinates": [ -77.291666666284996, 38.583333333242997 ] } },
{ "type": "Feature", "properties": { "heat_normalized": 0.9802 }, "geometry": { "type": "Point", "coordinates": [ -77.374999999619007, 38.541666666575999 ] } },
{ "type": "Feature", "properties": { "heat_normalized": 0.9713 }, "geometry": { "type": "Point", "coordinates": [ -77.333333332951995, 38.541666666575999 ] } },
{ "type": "Feature", "properties": { "heat_normalized": 0.8951 }, "geometry": { "type": "Point", "coordinates": [ -77.291666666284996, 38.541666666575999 ] } }
]
}
