{
"type": "FeatureCollection",
"name": "NoVA_Boundaries",
"crs": { "type": "name", "properties": { "name": "urn:ogc:def:crs:OGC:1.3:CRS84" } },
"features": [
{ "type": "Feature", "properties": { "STATEFP": "51", "COUNTYFP": "107", "COUNTYNS": "01480141", "GEOIDFQ": "0500000US51107", "GEOID": "51107", "NAME": "Loudoun", "NAMELSAD": "Loudoun County", "STUSPS": "VA", "STATE_NAME": "Virginia", "LSAD": "06", "ALAND": 1335753659, "AWATER": 14495954 }, "geometry": { "type": "Polygon", "coordinates": [ [ [ -77.956402, 39.020856 ], [ -77.947884, 39.022007 ], [ -77.941227, 39.023474 ], [ -77.929927, 39.030239 ], [ -77.926815, 39.035296 ], [ -77.917642, 39.03907 ], [ -77.906806, 39.045783 ], [ -77.899086, 39.052917 ], [ -77.893279, 39.055425 ], [ -77.887892, 39.064463 ], [ -77.877596, 39.078042 ], [ -77.87395, 39.080148 ], [ -77.862825, 39.080979 ], [ -77.855786, 39.092805 ], [ -77.853741, 39.101025 ], [ -77.845843, 39.115892 ], [ -77.845747, 39.116073 ], [ -77.843797, 39.119747 ], [ -77.838935, 39.121819 ], [ -77.835841, 39.125719 ], [ -77.832515, 39.127519 ], [ -77.828301833267304, 39.132422454832501 ], [ -77.828157, 39.132329 ], [ -77.822182, 39.139985 ], [ -77.82223, 39.142734 ], [ -77.82299, 39.145451 ], [ -77.822874, 39.147755 ], [ -77.821413, 39.15241 ], [ -77.818446, 39.155279 ], [ -77.813206, 39.165023 ], [ -77.811295, 39.167563 ], [ -77.809125, 39.168567 ], [ -77.806395397178093, 39.17192369728 ], [ -77.805991, 39.172421 ], [ -77.805099, 39.174222 ], [ -77.804415, 39.178045 ], [ -77.804712, 39.179419 ], [ -77.800014688619797, 39.188722716010403 ], [ -77.797943, 39.192826 ], [ -77.797714, 39.19424 ], [ -77.798478, 39.199574 ], [ -77.79819, 39.200658 ], [ -77.794596, 39.206299 ], [ -77.793961297110599, 39.2088154489687 ], [ -77.793631, 39.210125 ], [ -77.788763, 39.215243 ], [ -77.78364, 39.224081 ], [ -77.781268, 39.226909 ], [ -77.778068, 39.229305 ], [ -77.771415, 39.236776 ], [ -77.770940186460095, 39.238222242111398 ], [ -77.767277, 39.24938 ], [ -77.770589, 39.249393 ], [ -77.770876, 39.24976 ], [ -77.770669, 39.255262 ], [ -77.770281, 39.255977 ], [ -77.768992, 39.256417 ], [ -77.768, 39.257657 ], [ -77.766525, 39.25734 ], [ -77.762844, 39.258445 ], [ -77.762231221377505, 39.261056712604898 ], [ -77.762194405956194, 39.261213622941298 ], [ -77.761768, 39.263031 ], [ -77.761217, 39.263721 ], [ -77.758733, 39.268114 ], [ -77.758412, 39.269197 ], [ -77.755698, 39.274575 ], [ -77.755193, 39.275191 ], [ -77.753105, 39.27734 ], [ -77.75306, 39.277971 ], [ -77.753357, 39.280331 ], [ -77.752726, 39.283373 ], [ -77.750267, 39.289284 ], [ -77.747287, 39.295001 ], [ -77.734899, 39.312409 ], [ -77.730047, 39.315666 ], [ -77.721638, 39.318494 ], [ -77.719946, 39.319693 ], [ -77.719519, 39.321314 ], [ -77.715865, 39.320641 ], [ -77.707709, 39.321559 ], [ -77.697461, 39.318633 ], [ -77.692984, 39.31845 ], [ -77.687124, 39.319914 ], [ -77.681706, 39.323666 ], [ -77.677123012746307, 39.324077373941201 ], [ -77.675846, 39.324192 ], [ -77.671341, 39.321675 ], [ -77.66613, 39.317008 ], [ -77.650997, 39.310784 ], [ -77.645454773487998, 39.309468658700901 ], [ -77.643995627857905, 39.309122358436099 ], [ -77.643276035039094, 39.308951576864601 ], [ -77.640282, 39.308241 ], [ -77.639528628666696, 39.308158293125601 ], [ -77.636101, 39.307782 ], [ -77.631697632571402, 39.3066768993558 ], [ -77.631656894377599, 39.306666675406703 ], [ -77.615939, 39.302722 ], [ -77.606856765484494, 39.303595935505697 ], [ -77.6059, 39.303688 ], [ -77.605360245252896, 39.303548979263901 ], [ -77.603949181925998, 39.303185541863101 ], [ -77.598892, 39.301883 ], [ -77.592739, 39.30129 ], [ -77.588235, 39.301955 ], [ -77.583091870148294, 39.303682572249997 ], [ -77.578491, 39.305228 ], [ -77.570041, 39.30635 ], [ -77.566596, 39.306121 ], [ -77.565831025117106, 39.3056199030448 ], [ -77.56321, 39.303903 ], [ -77.561826, 39.301913 ], [ -77.562768, 39.294501 ], [ -77.560854, 39.286152 ], [ -77.553114, 39.279268 ], [ -77.551268250498296, 39.276234161255999 ], [ -77.551054, 39.275882 ], [ -77.546596863947798, 39.272161729182201 ], [ -77.546555283374701, 39.272127022816797 ], [ -77.545846, 39.271535 ], [ -77.544258, 39.26966 ], [ -77.543228, 39.266937 ], [ -77.540581, 39.264947 ], [ -77.534461, 39.262361 ], [ -77.522486, 39.259086 ], [ -77.520986, 39.258491 ], [ -77.519634, 39.257232 ], [ -77.508427, 39.25263 ], [ -77.496606, 39.251045 ], [ -77.486813, 39.247586 ], [ -77.484664, 39.246123 ], [ -77.480807, 39.241664 ], [ -77.480243056670105, 39.241243423126399 ], [ -77.471213, 39.234509 ], [ -77.46021, 39.228359 ], [ -77.45812, 39.22614 ], [ -77.45768, 39.22502 ], [ -77.457943, 39.222023 ], [ -77.458922349468196, 39.220336398673503 ], [ -77.459883, 39.218682 ], [ -77.470113, 39.21184 ], [ -77.47361, 39.208407 ], [ -77.475929, 39.202024 ], [ -77.475013, 39.194934 ], [ -77.477362, 39.190495 ], [ -77.478596, 39.189168 ], [ -77.485971, 39.185665 ], [ -77.505162, 39.18205 ], [ -77.510631, 39.178484 ], [ -77.516426, 39.170891 ], [ -77.521222, 39.161057 ], [ -77.524415633122203, 39.150030653532497 ], [ -77.524872, 39.148455 ], [ -77.527282, 39.146236 ], [ -77.526790584499295, 39.138322791187903 ], [ -77.526728, 39.137315 ], [ -77.524559, 39.127821 ], [ -77.520985890300594, 39.122499150218701 ], [ -77.519929, 39.120925 ], [ -77.51532, 39.118591 ], [ -77.5020761733592, 39.114653233362802 ], [ -77.499711, 39.11395 ], [ -77.494955, 39.113038 ], [ -77.4858, 39.109303 ], [ -77.481279, 39.105658 ], [ -77.477553276799298, 39.101008918835802 ], [ -77.47701, 39.100331 ], [ -77.472414, 39.092524 ], [ -77.469443, 39.086387 ], [ -77.468698266239798, 39.085280809611099 ], [ -77.468049802212306, 39.084317613482398 ], [ -77.465031343440302, 39.079834145347299 ], [ -77.464965384821298, 39.0797361737039 ], [ -77.462617, 39.076248 ], [ -77.46145, 39.075151 ], [ -77.460817531633595, 39.074872932011303 ], [ -77.458202, 39.073723 ], [ -77.456962901478406, 39.0734336849033 ], [ -77.452827, 39.072468 ], [ -77.451251052748503, 39.072278297916199 ], [ -77.443608349953493, 39.071358320014497 ], [ -77.4374, 39.070611 ], [ -77.423245521514701, 39.066895200549503 ], [ -77.42318, 39.066878 ], [ -77.420710686718195, 39.066736850866597 ], [ -77.41543, 39.066435 ], [ -77.404593, 39.064496 ], [ -77.401913538603694, 39.064639196304 ], [ -77.399204, 39.064784 ], [ -77.38568, 39.061987 ], [ -77.380108, 39.062808 ], [ -77.378496031838395, 39.062323672322101 ], [ -77.375079, 39.061297 ], [ -77.369603559255097, 39.061144702972697 ], [ -77.367529, 39.061087 ], [ -77.366822456103506, 39.0611697776611 ], [ -77.359702, 39.062004 ], [ -77.350311, 39.062133 ], [ -77.342100278785495, 39.062835793176603 ], [ -77.340287, 39.062991 ], [ -77.335511, 39.061771 ], [ -77.33401, 39.060989 ], [ -77.333729921255696, 39.059624537433002 ], [ -77.333706, 39.059508 ], [ -77.328281093198996, 39.057794871536501 ], [ -77.334249, 39.051695 ], [ -77.3517, 39.034065 ], [ -77.362656, 39.023023 ], [ -77.37041, 39.015177 ], [ -77.371103, 39.01448 ], [ -77.371316, 39.014265 ], [ -77.375944, 39.009585 ], [ -77.378344, 39.007161 ], [ -77.391124, 38.994233 ], [ -77.394338, 38.990984 ], [ -77.400955, 38.984292 ], [ -77.40257, 38.982649 ], [ -77.408568, 38.976591 ], [ -77.413055, 38.97205 ], [ -77.413524, 38.971573 ], [ -77.422416, 38.962579 ], [ -77.422788, 38.9622 ], [ -77.429278, 38.95563 ], [ -77.429379, 38.955523 ], [ -77.432198, 38.952673 ], [ -77.465651, 38.91878 ], [ -77.473248, 38.911077 ], [ -77.485021, 38.899128 ], [ -77.495633, 38.888363 ], [ -77.496821, 38.887154 ], [ -77.535991, 38.847368 ], [ -77.538383, 38.847685 ], [ -77.54408, 38.85025 ], [ -77.546066, 38.849227 ], [ -77.547656, 38.848398 ], [ -77.545547, 38.847777 ], [ -77.545899, 38.846592 ], [ -77.548752, 38.846609 ], [ -77.550442, 38.848814 ], [ -77.5474, 38.852783 ], [ -77.548074, 38.854269 ], [ -77.552496, 38.856318 ], [ -77.551336, 38.859197 ], [ -77.549638, 38.860483 ], [ -77.548221, 38.862971 ], [ -77.550759, 38.864325 ], [ -77.552592, 38.864056 ], [ -77.552787, 38.864789 ], [ -77.549216, 38.867872 ], [ -77.551535, 38.871682 ], [ -77.550683, 38.87287 ], [ -77.551999, 38.875211 ], [ -77.55009, 38.877352 ], [ -77.549946, 38.8798 ], [ -77.551861, 38.883026 ], [ -77.55224, 38.886588 ], [ -77.552968, 38.886854 ], [ -77.555733, 38.888529 ], [ -77.557583, 38.888361 ], [ -77.560545, 38.886781 ], [ -77.562003, 38.887182 ], [ -77.563889, 38.886181 ], [ -77.568307, 38.887604 ], [ -77.569061, 38.888955 ], [ -77.57025, 38.889582 ], [ -77.57423, 38.891255 ], [ -77.57489, 38.890249 ], [ -77.578854, 38.891528 ], [ -77.580606, 38.891002 ], [ -77.584659, 38.893544 ], [ -77.585728, 38.895163 ], [ -77.588364, 38.896273 ], [ -77.591571, 38.896657 ], [ -77.591302, 38.899027 ], [ -77.593858, 38.900811 ], [ -77.595672, 38.901134 ], [ -77.598246, 38.902791 ], [ -77.598703, 38.904376 ], [ -77.600491, 38.906299 ], [ -77.601101, 38.907861 ], [ -77.603189, 38.91106 ], [ -77.607591, 38.912023 ], [ -77.608777, 38.913086 ], [ -77.610373, 38.916146 ], [ -77.611597, 38.91751 ], [ -77.611301, 38.91953 ], [ -77.611706, 38.921211 ], [ -77.612888, 38.922919 ], [ -77.612758, 38.924054 ], [ -77.615101, 38.925501 ], [ -77.615968, 38.927194 ], [ -77.617013, 38.927566 ], [ -77.617628, 38.930565 ], [ -77.618654, 38.931293 ], [ -77.620932, 38.930884 ], [ -77.624699, 38.931366 ], [ -77.625044, 38.931825 ], [ -77.626196, 38.933154 ], [ -77.628735, 38.933627 ], [ -77.631415, 38.934881 ], [ -77.634692, 38.938006 ], [ -77.637502, 38.9417 ], [ -77.640488, 38.941803 ], [ -77.641618, 38.942746 ], [ -77.644185, 38.942579 ], [ -77.646055, 38.941485 ], [ -77.647451, 38.94145 ], [ -77.649745, 38.94268 ], [ -77.651561, 38.942774 ], [ -77.653613, 38.942173 ], [ -77.655169, 38.942656 ], [ -77.728978, 38.959843 ], [ -77.797225, 38.975667 ], [ -77.820128, 38.980967 ], [ -77.820355, 38.98102 ], [ -77.866429, 38.991666 ], [ -77.887539, 38.996537 ], [ -77.921694, 39.004408 ], [ -77.962203, 39.013733 ], [ -77.956402, 39.020856 ] ] ] } },
{ "type": "Feature", "properties": { "STATEFP": "51", "COUNTYFP": "059", "COUNTYNS": "01480119", "GEOIDFQ": "0500000US51059", "GEOID": "51059", "NAME": "Fairfax", "NAMELSAD": "Fairfax County", "STUSPS": "VA", "STATE_NAME": "Virginia", "LSAD": "06", "ALAND": 1012738308, "AWATER": 40015946 }, "geometry": { "type": "MultiPolygon", "coordinates": [ [ [ [ -77.316477, 38.846146 ], [ -77.314679, 38.84617 ], [ -77.314988, 38.845457 ], [ -77.312074, 38.845518 ], [ -77.311779, 38.846599 ], [ -77.308216, 38.846608 ], [ -77.306605, 38.846259 ], [ -77.307011, 38.845114 ], [ -77.308765, 38.84284 ], [ -77.316488, 38.845005 ], [ -77.316477, 38.846146 ] ] ], [ [ [ -77.536976, 38.842752 ], [ -77.534958, 38.846787 ], [ -77.535991, 38.847368 ], [ -77.496821, 38.887154 ], [ -77.495633, 38.888363 ], [ -77.485021, 38.899128 ], [ -77.473248, 38.911077 ], [ -77.465651, 38.91878 ], [ -77.432198, 38.952673 ], [ -77.429379, 38.955523 ], [ -77.429278, 38.95563 ], [ -77.422788, 38.9622 ], [ -77.422416, 38.962579 ], [ -77.413524, 38.971573 ], [ -77.413055, 38.97205 ], [ -77.408568, 38.976591 ], [ -77.40257, 38.982649 ], [ -77.400955, 38.984292 ], [ -77.394338, 38.990984 ], [ -77.391124, 38.994233 ], [ -77.378344, 39.007161 ], [ -77.375944, 39.009585 ], [ -77.371316, 39.014265 ], [ -77.371103, 39.01448 ], [ -77.37041, 39.015177 ], [ -77.362656, 39.023023 ], [ -77.3517, 39.034065 ], [ -77.334249, 39.051695 ], [ -77.328281093198996, 39.057794871536501 ], [ -77.324206, 39.056508 ], [ -77.314905, 39.052208 ], [ -77.310705, 39.052008 ], [ -77.308457759218697, 39.051428814231599 ], [ -77.301005, 39.049508 ], [ -77.293105, 39.046508 ], [ -77.274706, 39.034091 ], [ -77.266004, 39.031909 ], [ -77.258328302967399, 39.0305461531294 ], [ -77.255303, 39.030009 ], [ -77.248403, 39.026909 ], [ -77.248383031580403, 39.026892359650397 ], [ -77.246003, 39.024909 ], [ -77.244926713599995, 39.021218875199999 ], [ -77.244603, 39.020109 ], [ -77.246903, 39.014809 ], [ -77.251803, 39.011409 ], [ -77.255703, 39.002409 ], [ -77.253003, 38.995709 ], [ -77.249203, 38.993709 ], [ -77.248303, 38.992309 ], [ -77.246172, 38.985749 ], [ -77.244621, 38.982535 ], [ -77.241081, 38.981206 ], [ -77.234803, 38.97631 ], [ -77.232268, 38.979502 ], [ -77.231601, 38.979917 ], [ -77.229992, 38.979858 ], [ -77.228395, 38.978404 ], [ -77.224969, 38.973349 ], [ -77.221502, 38.97131 ], [ -77.211502, 38.96941 ], [ -77.209302, 38.97041 ], [ -77.203602, 38.96891 ], [ -77.202502, 38.96791 ], [ -77.197502, 38.96681 ], [ -77.188302, 38.96751 ], [ -77.183002, 38.96881 ], [ -77.179855776306695, 38.968441556544299 ], [ -77.179603992850801, 38.968412071048199 ], [ -77.171901, 38.96751 ], [ -77.171826689881698, 38.967508094612299 ], [ -77.168001, 38.96741 ], [ -77.166901, 38.96811 ], [ -77.165301, 38.96801 ], [ -77.151084, 38.965832 ], [ -77.149924280797606, 38.965500651656498 ], [ -77.148179, 38.965002 ], [ -77.146601, 38.96421 ], [ -77.137701, 38.95531 ], [ -77.131901, 38.94741 ], [ -77.127601, 38.94001 ], [ -77.119796691084105, 38.934370237359602 ], [ -77.121179, 38.933287 ], [ -77.134495, 38.922853 ], [ -77.139427, 38.918982 ], [ -77.145809, 38.914006 ], [ -77.151977, 38.909177 ], [ -77.159681, 38.903147 ], [ -77.164208, 38.899578 ], [ -77.16811, 38.896521 ], [ -77.172276, 38.893245 ], [ -77.175128, 38.893765 ], [ -77.175749, 38.893879 ], [ -77.18882, 38.896266 ], [ -77.191432, 38.897799 ], [ -77.191266, 38.899723 ], [ -77.194712, 38.899073 ], [ -77.194949, 38.898171 ], [ -77.189854, 38.894395 ], [ -77.189922, 38.894267 ], [ -77.19227, 38.892783 ], [ -77.191302, 38.891672 ], [ -77.194257, 38.886114 ], [ -77.192579, 38.883124 ], [ -77.189754, 38.878136 ], [ -77.187839, 38.87875 ], [ -77.18464, 38.878923 ], [ -77.182197, 38.879032 ], [ -77.179028, 38.87942 ], [ -77.178693, 38.879379 ], [ -77.178049, 38.879295 ], [ -77.17374, 38.878724 ], [ -77.167506, 38.876508 ], [ -77.163322, 38.874975 ], [ -77.16044, 38.873925 ], [ -77.158404, 38.874235 ], [ -77.155906, 38.872626 ], [ -77.153711, 38.872715 ], [ -77.149789, 38.873362 ], [ -77.149701, 38.87567 ], [ -77.14713, 38.873606 ], [ -77.146793, 38.873341 ], [ -77.145206, 38.872108 ], [ -77.137631, 38.866199 ], [ -77.137495, 38.866093 ], [ -77.131849, 38.861727 ], [ -77.127183, 38.858109 ], [ -77.123609, 38.855305 ], [ -77.121151, 38.853325 ], [ -77.118876, 38.851563 ], [ -77.11758, 38.850495 ], [ -77.113365, 38.847382 ], [ -77.110183, 38.844795 ], [ -77.110799, 38.843446 ], [ -77.115681, 38.841947 ], [ -77.121375, 38.840492 ], [ -77.121391, 38.840544 ], [ -77.121644, 38.841356 ], [ -77.124642, 38.841376 ], [ -77.125906, 38.839346 ], [ -77.124698, 38.837595 ], [ -77.127912, 38.836938 ], [ -77.12964, 38.835131 ], [ -77.131388, 38.833331 ], [ -77.135274, 38.83216 ], [ -77.13491, 38.830813 ], [ -77.140872, 38.826905 ], [ -77.141865, 38.825424 ], [ -77.142158, 38.823813 ], [ -77.138513, 38.823884 ], [ -77.13719, 38.821502 ], [ -77.138948, 38.820071 ], [ -77.139558, 38.819575 ], [ -77.138411, 38.81874 ], [ -77.141153, 38.817404 ], [ -77.143736, 38.814195 ], [ -77.14367, 38.813588 ], [ -77.143677, 38.81296 ], [ -77.143771, 38.810773 ], [ -77.143797, 38.810658 ], [ -77.144359, 38.810357 ], [ -77.143724, 38.807789 ], [ -77.142704, 38.805703 ], [ -77.140034, 38.800587 ], [ -77.137742, 38.800757 ], [ -77.137562, 38.798169 ], [ -77.134491, 38.798603 ], [ -77.121, 38.800529 ], [ -77.117292, 38.801392 ], [ -77.112891, 38.802822 ], [ -77.112205, 38.802071 ], [ -77.108328, 38.802983 ], [ -77.10383, 38.803476 ], [ -77.099136, 38.803397 ], [ -77.09122, 38.802462 ], [ -77.087415, 38.801999 ], [ -77.077701, 38.800837 ], [ -77.077475, 38.80081 ], [ -77.071497, 38.799635 ], [ -77.063031, 38.796424 ], [ -77.063614, 38.79535 ], [ -77.062469, 38.794959 ], [ -77.060829, 38.794402 ], [ -77.05984, 38.794048 ], [ -77.056524, 38.792465 ], [ -77.052685, 38.790764 ], [ -77.051365, 38.789938 ], [ -77.041362, 38.785415 ], [ -77.040372554526996, 38.785355394851003 ], [ -77.041098, 38.773313 ], [ -77.041551790311701, 38.761037665453998 ], [ -77.041597972584995, 38.759788403757398 ], [ -77.042080963257007, 38.746723179733202 ], [ -77.042282, 38.741285 ], [ -77.043079, 38.739797 ], [ -77.043467, 38.739147 ], [ -77.042382, 38.737785 ], [ -77.041637, 38.736705 ], [ -77.041541478264605, 38.729830619106998 ], [ -77.041523461387797, 38.728534004540698 ], [ -77.041487, 38.72591 ], [ -77.042621964894707, 38.7214786911101 ], [ -77.043254, 38.719011 ], [ -77.043309305513105, 38.718924902362303 ], [ -77.046196, 38.714431 ], [ -77.053199, 38.709915 ], [ -77.062190952118797, 38.709654653947602 ], [ -77.065322, 38.709564 ], [ -77.071834, 38.710085 ], [ -77.073501, 38.711314 ], [ -77.074209, 38.712611 ], [ -77.074220940000103, 38.712612976957601 ], [ -77.077108, 38.713091 ], [ -77.078062, 38.713427 ], [ -77.079563, 38.712835 ], [ -77.079868, 38.71208 ], [ -77.080724, 38.711277 ], [ -77.080802, 38.710308 ], [ -77.079948, 38.70901 ], [ -77.086265154329794, 38.706027846905499 ], [ -77.0918, 38.703415 ], [ -77.095167615384597, 38.701169923076897 ], [ -77.099, 38.698615 ], [ -77.1027, 38.698315 ], [ -77.1059, 38.696815 ], [ -77.122001, 38.685816 ], [ -77.122552141592905, 38.6851861238938 ], [ -77.132312061946905, 38.674031929203501 ], [ -77.132501, 38.673816 ], [ -77.134462899338303, 38.659967875817699 ], [ -77.135901, 38.649817 ], [ -77.131901, 38.644217 ], [ -77.132201, 38.641217 ], [ -77.1302, 38.635017 ], [ -77.14407, 38.635728 ], [ -77.147633, 38.635107 ], [ -77.158091, 38.636871 ], [ -77.160943, 38.634004 ], [ -77.163082, 38.631208 ], [ -77.168906, 38.625452 ], [ -77.174902, 38.624217 ], [ -77.180207, 38.623262 ], [ -77.181999, 38.622023 ], [ -77.18432, 38.621465 ], [ -77.185903, 38.621516 ], [ -77.190447, 38.619572 ], [ -77.191648, 38.619168 ], [ -77.194474, 38.619452 ], [ -77.197887, 38.619413 ], [ -77.200536, 38.6187 ], [ -77.201969, 38.617675 ], [ -77.203696, 38.618172 ], [ -77.205254, 38.620707 ], [ -77.205103, 38.623917 ], [ -77.205601, 38.625986 ], [ -77.211023, 38.630027 ], [ -77.212468658733599, 38.632933269002002 ], [ -77.213827, 38.635664 ], [ -77.215701, 38.63707 ], [ -77.214897, 38.637892 ], [ -77.208717, 38.637614 ], [ -77.203369, 38.64012 ], [ -77.198021, 38.646803 ], [ -77.195169, 38.649123 ], [ -77.193268, 38.650887 ], [ -77.194337, 38.652743 ], [ -77.197784, 38.656177 ], [ -77.200755, 38.658033 ], [ -77.203488, 38.658497 ], [ -77.207053, 38.657383 ], [ -77.2105, 38.656548 ], [ -77.213589, 38.656826 ], [ -77.219531, 38.657847 ], [ -77.22476, 38.657662 ], [ -77.226068, 38.66026 ], [ -77.229989, 38.661652 ], [ -77.231891, 38.66258 ], [ -77.233897244892802, 38.661335532252103 ], [ -77.239495, 38.666534 ], [ -77.240631, 38.667749 ], [ -77.244085, 38.671365 ], [ -77.245387, 38.672129 ], [ -77.245756, 38.672273 ], [ -77.249857, 38.673796 ], [ -77.250363, 38.674154 ], [ -77.252099, 38.677835 ], [ -77.25478, 38.681178 ], [ -77.254172, 38.681535 ], [ -77.257915, 38.684701 ], [ -77.258098, 38.684781 ], [ -77.263422, 38.686389 ], [ -77.266055, 38.68781 ], [ -77.27217, 38.691734 ], [ -77.273305, 38.692882 ], [ -77.274194, 38.693672 ], [ -77.276383, 38.694588 ], [ -77.281142, 38.695845 ], [ -77.282404, 38.696468 ], [ -77.287121, 38.69937 ], [ -77.294163, 38.702785 ], [ -77.298759, 38.704329 ], [ -77.30206, 38.707622 ], [ -77.304018, 38.708091 ], [ -77.306868, 38.707541 ], [ -77.308567, 38.706727 ], [ -77.310191, 38.705618 ], [ -77.313138, 38.701951 ], [ -77.316347, 38.701173 ], [ -77.317154, 38.701208 ], [ -77.324705, 38.701544 ], [ -77.326141, 38.702046 ], [ -77.326963, 38.703104 ], [ -77.326908, 38.704131 ], [ -77.323521, 38.708057 ], [ -77.320492, 38.709411 ], [ -77.320233, 38.710842 ], [ -77.322446, 38.712458 ], [ -77.325521, 38.712571 ], [ -77.330039, 38.711158 ], [ -77.331638, 38.7113 ], [ -77.332964, 38.712791 ], [ -77.332296, 38.716525 ], [ -77.332694, 38.71838 ], [ -77.335378, 38.719453 ], [ -77.341903, 38.720084 ], [ -77.344381, 38.721055 ], [ -77.348981, 38.721193 ], [ -77.352344, 38.722226 ], [ -77.355884, 38.725425 ], [ -77.356678, 38.725443 ], [ -77.359123, 38.723761 ], [ -77.360395, 38.722262 ], [ -77.360757, 38.721669 ], [ -77.361427, 38.720439 ], [ -77.363494, 38.715363 ], [ -77.367091, 38.714083 ], [ -77.367861, 38.713264 ], [ -77.36849, 38.710852 ], [ -77.369871, 38.710243 ], [ -77.372107, 38.710975 ], [ -77.374341, 38.712299 ], [ -77.379052, 38.717948 ], [ -77.379983, 38.719893 ], [ -77.380526, 38.722537 ], [ -77.380384, 38.72428 ], [ -77.379301, 38.726824 ], [ -77.377441, 38.729558 ], [ -77.378106, 38.734203 ], [ -77.3806, 38.737542 ], [ -77.385762, 38.741416 ], [ -77.387241, 38.741842 ], [ -77.389708, 38.743009 ], [ -77.389813, 38.744093 ], [ -77.388105, 38.746915 ], [ -77.388469, 38.749054 ], [ -77.391303, 38.749126 ], [ -77.393778, 38.749743 ], [ -77.397495, 38.749189 ], [ -77.401357, 38.752249 ], [ -77.403995, 38.751697 ], [ -77.405132, 38.749389 ], [ -77.40375, 38.746566 ], [ -77.404527, 38.745847 ], [ -77.406879, 38.746035 ], [ -77.40844, 38.745037 ], [ -77.411774, 38.744932 ], [ -77.41163, 38.747505 ], [ -77.410616, 38.749316 ], [ -77.406673, 38.752678 ], [ -77.407019, 38.754196 ], [ -77.414309, 38.75766 ], [ -77.415945, 38.758188 ], [ -77.417186, 38.761261 ], [ -77.415348, 38.762195 ], [ -77.413664, 38.761902 ], [ -77.41278, 38.762743 ], [ -77.412778, 38.765281 ], [ -77.415815, 38.767558 ], [ -77.415338, 38.769487 ], [ -77.412832, 38.77117 ], [ -77.413391, 38.77253 ], [ -77.41764, 38.77471 ], [ -77.421403, 38.776036 ], [ -77.421805, 38.776844 ], [ -77.425719, 38.778538 ], [ -77.429956, 38.781155 ], [ -77.43058, 38.781135 ], [ -77.432739, 38.77976 ], [ -77.433316, 38.779959 ], [ -77.433286, 38.785112 ], [ -77.432995, 38.78695 ], [ -77.43665, 38.790943 ], [ -77.436388, 38.7926 ], [ -77.437824, 38.794948 ], [ -77.439393, 38.798976 ], [ -77.44157, 38.801357 ], [ -77.443084, 38.803653 ], [ -77.447309, 38.803897 ], [ -77.448935, 38.80317 ], [ -77.449042, 38.803087 ], [ -77.450586, 38.802227 ], [ -77.450029, 38.800561 ], [ -77.4523, 38.796334 ], [ -77.456593, 38.795862 ], [ -77.457743, 38.797291 ], [ -77.459657, 38.797582 ], [ -77.46237, 38.795492 ], [ -77.464128, 38.796171 ], [ -77.466845, 38.79656 ], [ -77.468234, 38.796299 ], [ -77.469081, 38.795913 ], [ -77.474435, 38.796614 ], [ -77.475773, 38.797506 ], [ -77.476488, 38.799334 ], [ -77.479708, 38.799025 ], [ -77.480429, 38.796569 ], [ -77.483297, 38.797156 ], [ -77.486969, 38.796547 ], [ -77.492757, 38.797663 ], [ -77.494359, 38.798917 ], [ -77.494213, 38.800416 ], [ -77.489735, 38.805862 ], [ -77.489228, 38.808505 ], [ -77.490341, 38.810254 ], [ -77.491245, 38.811367 ], [ -77.49721, 38.813259 ], [ -77.50131, 38.814002 ], [ -77.505059, 38.816199 ], [ -77.5062, 38.821451 ], [ -77.503886, 38.824041 ], [ -77.50394, 38.825639 ], [ -77.50916, 38.828059 ], [ -77.512368, 38.830403 ], [ -77.510473, 38.83382 ], [ -77.510992, 38.835633 ], [ -77.510497, 38.836522 ], [ -77.508028, 38.8368 ], [ -77.507551, 38.837518 ], [ -77.508648, 38.838957 ], [ -77.508812, 38.84107 ], [ -77.511211, 38.841368 ], [ -77.521951, 38.837311 ], [ -77.523564, 38.836937 ], [ -77.527627, 38.83744 ], [ -77.529616, 38.837011 ], [ -77.532462, 38.83863 ], [ -77.534911, 38.83935 ], [ -77.53612, 38.840686 ], [ -77.536976, 38.842752 ] ], [ [ -77.334822, 38.851492 ], [ -77.331558, 38.851746 ], [ -77.330461, 38.848879 ], [ -77.331247, 38.847333 ], [ -77.325298, 38.846287 ], [ -77.322692, 38.843196 ], [ -77.318755, 38.842014 ], [ -77.318751, 38.841578 ], [ -77.318693, 38.835172 ], [ -77.316224, 38.836408 ], [ -77.311923, 38.835708 ], [ -77.311862, 38.836782 ], [ -77.308049, 38.83688 ], [ -77.307859, 38.835742 ], [ -77.303962, 38.836081 ], [ -77.303067, 38.832822 ], [ -77.301326, 38.833103 ], [ -77.302284, 38.83534 ], [ -77.297162, 38.834984 ], [ -77.296731, 38.835974 ], [ -77.296735, 38.837314 ], [ -77.288295, 38.836235 ], [ -77.287257, 38.836122 ], [ -77.28647, 38.838617 ], [ -77.286078, 38.841721 ], [ -77.278535, 38.840676 ], [ -77.278598, 38.841977 ], [ -77.27052, 38.840902 ], [ -77.269977, 38.843339 ], [ -77.271744, 38.848488 ], [ -77.270451, 38.851353 ], [ -77.269006, 38.852302 ], [ -77.269809, 38.855593 ], [ -77.268727, 38.859563 ], [ -77.268919, 38.862775 ], [ -77.268929, 38.862795 ], [ -77.26994, 38.86504 ], [ -77.270597, 38.866075 ], [ -77.27415, 38.86631 ], [ -77.28507, 38.86705 ], [ -77.291659, 38.867498 ], [ -77.291461, 38.868241 ], [ -77.290699, 38.870997 ], [ -77.292264, 38.871586 ], [ -77.297607, 38.870404 ], [ -77.303139, 38.869208 ], [ -77.304754, 38.863383 ], [ -77.307546, 38.863178 ], [ -77.309109, 38.865163 ], [ -77.31166, 38.866673 ], [ -77.315056, 38.866998 ], [ -77.32261, 38.865947 ], [ -77.328788, 38.864848 ], [ -77.328813, 38.863893 ], [ -77.333242, 38.856571 ], [ -77.333327, 38.85642 ], [ -77.334798, 38.853832 ], [ -77.334822, 38.851492 ] ] ] ] } },
{ "type": "Feature", "properties": { "STATEFP": "51", "COUNTYFP": "153", "COUNTYNS": "01480161", "GEOIDFQ": "0500000US51153", "GEOID": "51153", "NAME": "Prince William", "NAMELSAD": "Prince William County", "STUSPS": "VA", "STATE_NAME": "Virginia", "LSAD": "06", "ALAND": 868307139, "AWATER": 30896246 }, "geometry": { "type": "MultiPolygon", "coordinates": [ [ [ [ -77.481139, 38.756111 ], [ -77.477716, 38.753926 ], [ -77.478105, 38.752669 ], [ -77.475518, 38.752851 ], [ -77.475368, 38.752113 ], [ -77.477332, 38.751868 ], [ -77.47706, 38.750514 ], [ -77.481383, 38.751339 ], [ -77.481139, 38.756111 ] ] ], [ [ [ -77.715667, 38.843224 ], [ -77.704931, 38.843152 ], [ -77.702746, 38.847793 ], [ -77.701554, 38.851592 ], [ -77.702183, 38.853628 ], [ -77.701337, 38.855443 ], [ -77.700697, 38.860494 ], [ -77.699654, 38.862349 ], [ -77.699676, 38.863888 ], [ -77.699431, 38.867145 ], [ -77.697989, 38.871425 ], [ -77.697913, 38.875155 ], [ -77.696092, 38.878714 ], [ -77.696113, 38.879772 ], [ -77.692622, 38.887004 ], [ -77.680402, 38.893235 ], [ -77.679432, 38.895455 ], [ -77.678752, 38.896003 ], [ -77.67719, 38.898898 ], [ -77.67343, 38.904404 ], [ -77.670636, 38.908016 ], [ -77.66854, 38.913086 ], [ -77.665221, 38.916736 ], [ -77.665289, 38.918217 ], [ -77.663791, 38.920459 ], [ -77.664066, 38.921729 ], [ -77.662522, 38.925592 ], [ -77.663658, 38.926513 ], [ -77.662449, 38.929761 ], [ -77.660864, 38.931715 ], [ -77.659932, 38.933594 ], [ -77.657542, 38.934976 ], [ -77.656668, 38.936935 ], [ -77.656758, 38.939673 ], [ -77.655169, 38.942656 ], [ -77.653613, 38.942173 ], [ -77.651561, 38.942774 ], [ -77.649745, 38.94268 ], [ -77.647451, 38.94145 ], [ -77.646055, 38.941485 ], [ -77.644185, 38.942579 ], [ -77.641618, 38.942746 ], [ -77.640488, 38.941803 ], [ -77.637502, 38.9417 ], [ -77.634692, 38.938006 ], [ -77.631415, 38.934881 ], [ -77.628735, 38.933627 ], [ -77.626196, 38.933154 ], [ -77.625044, 38.931825 ], [ -77.624699, 38.931366 ], [ -77.620932, 38.930884 ], [ -77.618654, 38.931293 ], [ -77.617628, 38.930565 ], [ -77.617013, 38.927566 ], [ -77.615968, 38.927194 ], [ -77.615101, 38.925501 ], [ -77.612758, 38.924054 ], [ -77.612888, 38.922919 ], [ -77.611706, 38.921211 ], [ -77.611301, 38.91953 ], [ -77.611597, 38.91751 ], [ -77.610373, 38.916146 ], [ -77.608777, 38.913086 ], [ -77.607591, 38.912023 ], [ -77.603189, 38.91106 ], [ -77.601101, 38.907861 ], [ -77.600491, 38.906299 ], [ -77.598703, 38.904376 ], [ -77.598246, 38.902791 ], [ -77.595672, 38.901134 ], [ -77.593858, 38.900811 ], [ -77.591302, 38.899027 ], [ -77.591571, 38.896657 ], [ -77.588364, 38.896273 ], [ -77.585728, 38.895163 ], [ -77.584659, 38.893544 ], [ -77.580606, 38.891002 ], [ -77.578854, 38.891528 ], [ -77.57489, 38.890249 ], [ -77.57423, 38.891255 ], [ -77.57025, 38.889582 ], [ -77.569061, 38.888955 ], [ -77.568307, 38.887604 ], [ -77.563889, 38.886181 ], [ -77.562003, 38.887182 ], [ -77.560545, 38.886781 ], [ -77.557583, 38.888361 ], [ -77.555733, 38.888529 ], [ -77.552968, 38.886854 ], [ -77.55224, 38.886588 ], [ -77.551861, 38.883026 ], [ -77.549946, 38.8798 ], [ -77.55009, 38.877352 ], [ -77.551999, 38.875211 ], [ -77.550683, 38.87287 ], [ -77.551535, 38.871682 ], [ -77.549216, 38.867872 ], [ -77.552787, 38.864789 ], [ -77.552592, 38.864056 ], [ -77.550759, 38.864325 ], [ -77.548221, 38.862971 ], [ -77.549638, 38.860483 ], [ -77.551336, 38.859197 ], [ -77.552496, 38.856318 ], [ -77.548074, 38.854269 ], [ -77.5474, 38.852783 ], [ -77.550442, 38.848814 ], [ -77.548752, 38.846609 ], [ -77.545899, 38.846592 ], [ -77.545547, 38.847777 ], [ -77.547656, 38.848398 ], [ -77.546066, 38.849227 ], [ -77.54408, 38.85025 ], [ -77.538383, 38.847685 ], [ -77.535991, 38.847368 ], [ -77.534958, 38.846787 ], [ -77.536976, 38.842752 ], [ -77.53612, 38.840686 ], [ -77.534911, 38.83935 ], [ -77.532462, 38.83863 ], [ -77.529616, 38.837011 ], [ -77.527627, 38.83744 ], [ -77.523564, 38.836937 ], [ -77.521951, 38.837311 ], [ -77.511211, 38.841368 ], [ -77.508812, 38.84107 ], [ -77.508648, 38.838957 ], [ -77.507551, 38.837518 ], [ -77.508028, 38.8368 ], [ -77.510497, 38.836522 ], [ -77.510992, 38.835633 ], [ -77.510473, 38.83382 ], [ -77.512368, 38.830403 ], [ -77.50916, 38.828059 ], [ -77.50394, 38.825639 ], [ -77.503886, 38.824041 ], [ -77.5062, 38.821451 ], [ -77.505059, 38.816199 ], [ -77.50131, 38.814002 ], [ -77.49721, 38.813259 ], [ -77.491245, 38.811367 ], [ -77.490341, 38.810254 ], [ -77.489228, 38.808505 ], [ -77.489735, 38.805862 ], [ -77.494213, 38.800416 ], [ -77.494359, 38.798917 ], [ -77.492757, 38.797663 ], [ -77.486969, 38.796547 ], [ -77.483297, 38.797156 ], [ -77.480429, 38.796569 ], [ -77.479708, 38.799025 ], [ -77.476488, 38.799334 ], [ -77.475773, 38.797506 ], [ -77.474435, 38.796614 ], [ -77.469081, 38.795913 ], [ -77.468234, 38.796299 ], [ -77.466845, 38.79656 ], [ -77.464128, 38.796171 ], [ -77.46237, 38.795492 ], [ -77.459657, 38.797582 ], [ -77.457743, 38.797291 ], [ -77.456593, 38.795862 ], [ -77.4523, 38.796334 ], [ -77.450029, 38.800561 ], [ -77.450586, 38.802227 ], [ -77.449042, 38.803087 ], [ -77.448935, 38.80317 ], [ -77.447309, 38.803897 ], [ -77.443084, 38.803653 ], [ -77.44157, 38.801357 ], [ -77.439393, 38.798976 ], [ -77.437824, 38.794948 ], [ -77.436388, 38.7926 ], [ -77.43665, 38.790943 ], [ -77.432995, 38.78695 ], [ -77.433286, 38.785112 ], [ -77.433316, 38.779959 ], [ -77.432739, 38.77976 ], [ -77.43058, 38.781135 ], [ -77.429956, 38.781155 ], [ -77.425719, 38.778538 ], [ -77.421805, 38.776844 ], [ -77.421403, 38.776036 ], [ -77.41764, 38.77471 ], [ -77.413391, 38.77253 ], [ -77.412832, 38.77117 ], [ -77.415338, 38.769487 ], [ -77.415815, 38.767558 ], [ -77.412778, 38.765281 ], [ -77.41278, 38.762743 ], [ -77.413664, 38.761902 ], [ -77.415348, 38.762195 ], [ -77.417186, 38.761261 ], [ -77.415945, 38.758188 ], [ -77.414309, 38.75766 ], [ -77.407019, 38.754196 ], [ -77.406673, 38.752678 ], [ -77.410616, 38.749316 ], [ -77.41163, 38.747505 ], [ -77.411774, 38.744932 ], [ -77.40844, 38.745037 ], [ -77.406879, 38.746035 ], [ -77.404527, 38.745847 ], [ -77.40375, 38.746566 ], [ -77.405132, 38.749389 ], [ -77.403995, 38.751697 ], [ -77.401357, 38.752249 ], [ -77.397495, 38.749189 ], [ -77.393778, 38.749743 ], [ -77.391303, 38.749126 ], [ -77.388469, 38.749054 ], [ -77.388105, 38.746915 ], [ -77.389813, 38.744093 ], [ -77.389708, 38.743009 ], [ -77.387241, 38.741842 ], [ -77.385762, 38.741416 ], [ -77.3806, 38.737542 ], [ -77.378106, 38.734203 ], [ -77.377441, 38.729558 ], [ -77.379301, 38.726824 ], [ -77.380384, 38.72428 ], [ -77.380526, 38.722537 ], [ -77.379983, 38.719893 ], [ -77.379052, 38.717948 ], [ -77.374341, 38.712299 ], [ -77.372107, 38.710975 ], [ -77.369871, 38.710243 ], [ -77.36849, 38.710852 ], [ -77.367861, 38.713264 ], [ -77.367091, 38.714083 ], [ -77.363494, 38.715363 ], [ -77.361427, 38.720439 ], [ -77.360757, 38.721669 ], [ -77.360395, 38.722262 ], [ -77.359123, 38.723761 ], [ -77.356678, 38.725443 ], [ -77.355884, 38.725425 ], [ -77.352344, 38.722226 ], [ -77.348981, 38.721193 ], [ -77.344381, 38.721055 ], [ -77.341903, 38.720084 ], [ -77.335378, 38.719453 ], [ -77.332694, 38.71838 ], [ -77.332296, 38.716525 ], [ -77.332964, 38.712791 ], [ -77.331638, 38.7113 ], [ -77.330039, 38.711158 ], [ -77.325521, 38.712571 ], [ -77.322446, 38.712458 ], [ -77.320233, 38.710842 ], [ -77.320492, 38.709411 ], [ -77.323521, 38.708057 ], [ -77.326908, 38.704131 ], [ -77.326963, 38.703104 ], [ -77.326141, 38.702046 ], [ -77.324705, 38.701544 ], [ -77.317154, 38.701208 ], [ -77.316347, 38.701173 ], [ -77.313138, 38.701951 ], [ -77.310191, 38.705618 ], [ -77.308567, 38.706727 ], [ -77.306868, 38.707541 ], [ -77.304018, 38.708091 ], [ -77.30206, 38.707622 ], [ -77.298759, 38.704329 ], [ -77.294163, 38.702785 ], [ -77.287121, 38.69937 ], [ -77.282404, 38.696468 ], [ -77.281142, 38.695845 ], [ -77.276383, 38.694588 ], [ -77.274194, 38.693672 ], [ -77.273305, 38.692882 ], [ -77.27217, 38.691734 ], [ -77.266055, 38.68781 ], [ -77.263422, 38.686389 ], [ -77.258098, 38.684781 ], [ -77.257915, 38.684701 ], [ -77.254172, 38.681535 ], [ -77.25478, 38.681178 ], [ -77.252099, 38.677835 ], [ -77.250363, 38.674154 ], [ -77.249857, 38.673796 ], [ -77.245756, 38.672273 ], [ -77.245387, 38.672129 ], [ -77.244085, 38.671365 ], [ -77.240631, 38.667749 ], [ -77.239495, 38.666534 ], [ -77.233897244892802, 38.661335532252103 ], [ -77.235931, 38.660074 ], [ -77.233317, 38.656641 ], [ -77.232532438444807, 38.656041869597701 ], [ -77.227969, 38.652557 ], [ -77.224404, 38.648288 ], [ -77.223928, 38.645968 ], [ -77.224404, 38.644761 ], [ -77.226068, 38.642348 ], [ -77.227375, 38.640491 ], [ -77.227594793409295, 38.639890323795299 ], [ -77.228326, 38.637892 ], [ -77.231249, 38.636947 ], [ -77.234199, 38.636561 ], [ -77.237213, 38.637772 ], [ -77.238515, 38.638852 ], [ -77.240604, 38.638917 ], [ -77.244216, 38.637314 ], [ -77.246108600457404, 38.635718829919902 ], [ -77.246704, 38.635217 ], [ -77.248087, 38.632313 ], [ -77.248904, 38.628617 ], [ -77.248403, 38.626309 ], [ -77.246829679071197, 38.624286596422998 ], [ -77.245835, 38.623008 ], [ -77.245104, 38.620717 ], [ -77.246152, 38.61756 ], [ -77.247808, 38.612638 ], [ -77.2497, 38.611355 ], [ -77.249954, 38.606139 ], [ -77.251975, 38.604281 ], [ -77.254946, 38.60326 ], [ -77.256372, 38.600845 ], [ -77.256400629282794, 38.600420372402702 ], [ -77.256479613428994, 38.599248884856003 ], [ -77.256491, 38.59908 ], [ -77.254708, 38.595829 ], [ -77.251208, 38.593463 ], [ -77.24681, 38.593994 ], [ -77.247003, 38.590618 ], [ -77.255304, 38.586915 ], [ -77.25795, 38.583396 ], [ -77.260515, 38.584591 ], [ -77.263859, 38.585054 ], [ -77.264182019642305, 38.5838043495798 ], [ -77.26443, 38.582845 ], [ -77.265304, 38.580319 ], [ -77.26083, 38.56533 ], [ -77.25703, 38.561197 ], [ -77.257042726885402, 38.560517929758497 ], [ -77.257044, 38.56045 ], [ -77.26032, 38.559843 ], [ -77.261594, 38.558848 ], [ -77.261634, 38.556692 ], [ -77.263826, 38.555436 ], [ -77.272584, 38.551438 ], [ -77.276603, 38.54712 ], [ -77.276595457786996, 38.546931444673604 ], [ -77.276303, 38.53962 ], [ -77.27858, 38.536875 ], [ -77.279123, 38.53398 ], [ -77.283111, 38.533014 ], [ -77.285487, 38.53069 ], [ -77.285991513106296, 38.5292597504369 ], [ -77.286426309089705, 38.528027142685602 ], [ -77.286438, 38.527994 ], [ -77.283937, 38.527884 ], [ -77.282754, 38.526253 ], [ -77.283503, 38.525221 ], [ -77.285923, 38.522196 ], [ -77.286035, 38.522056 ], [ -77.286557, 38.519441 ], [ -77.288618, 38.519151 ], [ -77.291103, 38.515721 ], [ -77.293925, 38.516093 ], [ -77.297728, 38.514791 ], [ -77.299392, 38.512002 ], [ -77.299361581540396, 38.511502779397702 ], [ -77.300081, 38.510277 ], [ -77.298492, 38.50792 ], [ -77.29826, 38.506048 ], [ -77.298675, 38.505308 ], [ -77.301289, 38.504559 ], [ -77.306195, 38.506493 ], [ -77.308632, 38.506111 ], [ -77.311005, 38.504776 ], [ -77.310688, 38.503577 ], [ -77.308162, 38.501079 ], [ -77.311538, 38.501499 ], [ -77.319474, 38.505001 ], [ -77.327003, 38.50657 ], [ -77.333715, 38.510779 ], [ -77.334234, 38.512451 ], [ -77.334558, 38.514212 ], [ -77.336816, 38.514916 ], [ -77.33999, 38.51417 ], [ -77.343289, 38.515411 ], [ -77.34796, 38.516026 ], [ -77.354675, 38.518391 ], [ -77.35709, 38.517764 ], [ -77.359068, 38.519763 ], [ -77.361215, 38.520159 ], [ -77.36441, 38.520918 ], [ -77.365651, 38.519373 ], [ -77.36828, 38.519022 ], [ -77.371042, 38.520161 ], [ -77.371078, 38.520216 ], [ -77.372027, 38.521189 ], [ -77.373384, 38.522382 ], [ -77.373146, 38.523297 ], [ -77.375907, 38.52655 ], [ -77.378167, 38.526314 ], [ -77.382477, 38.526521 ], [ -77.382637, 38.527825 ], [ -77.381037, 38.529777 ], [ -77.385156, 38.531199 ], [ -77.384263, 38.532312 ], [ -77.384835, 38.533388 ], [ -77.387966, 38.533111 ], [ -77.388328, 38.535 ], [ -77.391351, 38.536405 ], [ -77.392704, 38.538523 ], [ -77.392729, 38.539903 ], [ -77.394669, 38.54063 ], [ -77.396085, 38.542803 ], [ -77.394356, 38.544012 ], [ -77.396866, 38.5472 ], [ -77.39893, 38.548049 ], [ -77.401078, 38.54729 ], [ -77.400259, 38.549054 ], [ -77.403101, 38.551686 ], [ -77.407033, 38.553974 ], [ -77.409282, 38.553492 ], [ -77.4099, 38.555363 ], [ -77.41218, 38.55663 ], [ -77.414758, 38.556187 ], [ -77.41565, 38.557868 ], [ -77.418525, 38.558725 ], [ -77.420322, 38.56152 ], [ -77.422209, 38.561419 ], [ -77.420978, 38.563652 ], [ -77.423269, 38.563089 ], [ -77.423407, 38.564348 ], [ -77.425965, 38.564997 ], [ -77.426657, 38.564609 ], [ -77.429018, 38.565897 ], [ -77.430294, 38.566044 ], [ -77.432188, 38.567745 ], [ -77.433195, 38.569966 ], [ -77.435536, 38.570473 ], [ -77.436677, 38.572783 ], [ -77.437899, 38.573442 ], [ -77.440167, 38.573348 ], [ -77.441769, 38.574727 ], [ -77.444977, 38.575766 ], [ -77.446633, 38.577648 ], [ -77.446615, 38.579402 ], [ -77.447566, 38.58093 ], [ -77.448793, 38.581284 ], [ -77.458691, 38.580097 ], [ -77.459115, 38.579487 ], [ -77.461532, 38.579408 ], [ -77.464079, 38.578676 ], [ -77.465497, 38.58088 ], [ -77.466707, 38.581346 ], [ -77.467009, 38.58279 ], [ -77.468428, 38.583781 ], [ -77.468744, 38.585247 ], [ -77.470241, 38.585735 ], [ -77.47105, 38.586952 ], [ -77.471612, 38.589462 ], [ -77.473734, 38.590086 ], [ -77.476847, 38.592286 ], [ -77.479969, 38.591865 ], [ -77.480954, 38.592571 ], [ -77.483599, 38.591059 ], [ -77.485089, 38.592277 ], [ -77.487481, 38.591845 ], [ -77.491821, 38.590645 ], [ -77.496855, 38.58648 ], [ -77.497018, 38.583791 ], [ -77.499572, 38.580311 ], [ -77.531328, 38.55655 ], [ -77.532822, 38.557224 ], [ -77.561824, 38.601018 ], [ -77.57596, 38.62234 ], [ -77.579484, 38.627653 ], [ -77.61326, 38.678534 ], [ -77.619641, 38.688149 ], [ -77.624978, 38.696168 ], [ -77.642365, 38.722313 ], [ -77.657967, 38.745756 ], [ -77.659016, 38.747327 ], [ -77.662635, 38.752768 ], [ -77.669725, 38.763418 ], [ -77.679735, 38.77844 ], [ -77.679854, 38.77862 ], [ -77.709962, 38.823761 ], [ -77.715715, 38.832136 ], [ -77.715176, 38.83531 ], [ -77.715658, 38.836553 ], [ -77.71589, 38.841613 ], [ -77.715667, 38.843224 ] ], [ [ -77.526087, 38.729617 ], [ -77.524463, 38.727337 ], [ -77.524816, 38.724348 ], [ -77.524369, 38.723929 ], [ -77.521516, 38.722994 ], [ -77.521226, 38.722019 ], [ -77.522771, 38.719081 ], [ -77.523891, 38.718138 ], [ -77.521102, 38.717592 ], [ -77.519216, 38.716048 ], [ -77.517223, 38.715365 ], [ -77.515412, 38.715365 ], [ -77.513349, 38.716163 ], [ -77.506239, 38.706106 ], [ -77.505445, 38.708539 ], [ -77.503979, 38.709762 ], [ -77.502518, 38.712761 ], [ -77.502526, 38.715507 ], [ -77.50584, 38.718637 ], [ -77.505434, 38.720138 ], [ -77.507359, 38.719982 ], [ -77.508995, 38.721291 ], [ -77.507611, 38.72305 ], [ -77.508474, 38.724527 ], [ -77.513345, 38.731107 ], [ -77.512623, 38.731669 ], [ -77.514999, 38.735829 ], [ -77.513196, 38.73688 ], [ -77.506911, 38.740537 ], [ -77.501376, 38.738368 ], [ -77.49943, 38.737137 ], [ -77.499462, 38.734731 ], [ -77.493912, 38.725451 ], [ -77.490678, 38.728976 ], [ -77.490253, 38.731451 ], [ -77.488184, 38.73098 ], [ -77.485137, 38.73287 ], [ -77.480758, 38.732302 ], [ -77.480314, 38.730732 ], [ -77.473173, 38.728355 ], [ -77.472573, 38.727328 ], [ -77.471177, 38.727665 ], [ -77.462747, 38.731793 ], [ -77.459599, 38.733981 ], [ -77.458946, 38.73324 ], [ -77.453992, 38.735963 ], [ -77.453552, 38.73852 ], [ -77.451642, 38.738337 ], [ -77.451321, 38.73991 ], [ -77.451288, 38.740035 ], [ -77.449365, 38.748858 ], [ -77.450195, 38.753282 ], [ -77.449525, 38.753503 ], [ -77.447759, 38.760887 ], [ -77.456577, 38.765945 ], [ -77.454784, 38.767931 ], [ -77.457296, 38.768296 ], [ -77.460601, 38.770116 ], [ -77.458695, 38.772319 ], [ -77.454562, 38.770155 ], [ -77.453591, 38.769031 ], [ -77.448507, 38.766147 ], [ -77.447277, 38.767656 ], [ -77.444703, 38.766295 ], [ -77.445641, 38.765376 ], [ -77.443502, 38.763699 ], [ -77.443344, 38.75809 ], [ -77.445594, 38.756764 ], [ -77.446728, 38.756487 ], [ -77.441921, 38.750712 ], [ -77.441271, 38.749654 ], [ -77.439306, 38.751503 ], [ -77.438058, 38.750587 ], [ -77.435993, 38.755111 ], [ -77.441172, 38.756957 ], [ -77.438018, 38.758642 ], [ -77.434708, 38.756896 ], [ -77.43052, 38.75606 ], [ -77.427332, 38.753598 ], [ -77.424365, 38.756579 ], [ -77.422799, 38.759023 ], [ -77.422585, 38.760997 ], [ -77.42157, 38.761762 ], [ -77.420581, 38.762287 ], [ -77.423616, 38.769374 ], [ -77.42201, 38.768787 ], [ -77.419425, 38.769731 ], [ -77.422454, 38.775169 ], [ -77.422013, 38.776644 ], [ -77.423027, 38.776866 ], [ -77.427465, 38.778945 ], [ -77.428944, 38.779321 ], [ -77.431117, 38.779338 ], [ -77.431107, 38.779549 ], [ -77.432828, 38.779303 ], [ -77.434253, 38.778345 ], [ -77.440333, 38.783473 ], [ -77.441961, 38.780914 ], [ -77.443746, 38.779578 ], [ -77.443857, 38.778643 ], [ -77.442628, 38.775553 ], [ -77.444875, 38.770495 ], [ -77.447605, 38.772596 ], [ -77.449952, 38.77365 ], [ -77.4521, 38.773417 ], [ -77.452556, 38.77363 ], [ -77.452715, 38.774182 ], [ -77.459499, 38.778395 ], [ -77.458952, 38.78375 ], [ -77.458507, 38.787394 ], [ -77.459736, 38.787494 ], [ -77.470038, 38.788185 ], [ -77.472972, 38.788391 ], [ -77.47359, 38.788039 ], [ -77.478795, 38.782583 ], [ -77.475584, 38.781112 ], [ -77.478499, 38.778302 ], [ -77.478997, 38.777823 ], [ -77.483406, 38.774687 ], [ -77.487813, 38.769113 ], [ -77.490082, 38.769525 ], [ -77.493895, 38.770127 ], [ -77.494438, 38.770267 ], [ -77.495598, 38.770462 ], [ -77.50127, 38.76132 ], [ -77.502751, 38.759378 ], [ -77.50305, 38.759022 ], [ -77.510119, 38.750745 ], [ -77.512656, 38.747343 ], [ -77.513259, 38.745724 ], [ -77.512864, 38.744167 ], [ -77.52257, 38.740854 ], [ -77.519902, 38.735324 ], [ -77.525424, 38.735242 ], [ -77.526661, 38.733201 ], [ -77.526087, 38.729617 ] ] ] ] } },
{ "type": "Feature", "properties": { "STATEFP": "51", "COUNTYFP": "685", "COUNTYNS": "01498431", "GEOIDFQ": "0500000US51685", "GEOID": "51685", "NAME": "Manassas Park", "NAMELSAD": "Manassas Park city", "STUSPS": "VA", "STATE_NAME": "Virginia", "LSAD": "25", "ALAND": 7857548, "AWATER": 1609 }, "geometry": { "type": "Polygon", "coordinates": [ [ [ -77.478795, 38.782583 ], [ -77.47359, 38.788039 ], [ -77.472972, 38.788391 ], [ -77.470038, 38.788185 ], [ -77.459736, 38.787494 ], [ -77.458507, 38.787394 ], [ -77.458952, 38.78375 ], [ -77.459499, 38.778395 ], [ -77.452715, 38.774182 ], [ -77.452556, 38.77363 ], [ -77.4521, 38.773417 ], [ -77.449952, 38.77365 ], [ -77.447605, 38.772596 ], [ -77.444875, 38.770495 ], [ -77.442628, 38.775553 ], [ -77.443857, 38.778643 ], [ -77.443746, 38.779578 ], [ -77.441961, 38.780914 ], [ -77.440333, 38.783473 ], [ -77.434253, 38.778345 ], [ -77.432828, 38.779303 ], [ -77.431107, 38.779549 ], [ -77.431117, 38.779338 ], [ -77.428944, 38.779321 ], [ -77.427465, 38.778945 ], [ -77.423027, 38.776866 ], [ -77.422013, 38.776644 ], [ -77.422454, 38.775169 ], [ -77.419425, 38.769731 ], [ -77.42201, 38.768787 ], [ -77.423616, 38.769374 ], [ -77.420581, 38.762287 ], [ -77.42157, 38.761762 ], [ -77.422585, 38.760997 ], [ -77.422799, 38.759023 ], [ -77.424365, 38.756579 ], [ -77.427332, 38.753598 ], [ -77.43052, 38.75606 ], [ -77.434708, 38.756896 ], [ -77.438018, 38.758642 ], [ -77.441172, 38.756957 ], [ -77.435993, 38.755111 ], [ -77.438058, 38.750587 ], [ -77.439306, 38.751503 ], [ -77.441271, 38.749654 ], [ -77.441921, 38.750712 ], [ -77.446728, 38.756487 ], [ -77.445594, 38.756764 ], [ -77.443344, 38.75809 ], [ -77.443502, 38.763699 ], [ -77.445641, 38.765376 ], [ -77.444703, 38.766295 ], [ -77.447277, 38.767656 ], [ -77.448507, 38.766147 ], [ -77.453591, 38.769031 ], [ -77.454562, 38.770155 ], [ -77.458695, 38.772319 ], [ -77.459209, 38.772566 ], [ -77.459611, 38.772921 ], [ -77.465779, 38.77632 ], [ -77.469023, 38.7781 ], [ -77.474607, 38.78116 ], [ -77.475584, 38.781112 ], [ -77.478795, 38.782583 ] ] ] } },
{ "type": "Feature", "properties": { "STATEFP": "51", "COUNTYFP": "683", "COUNTYNS": "01498430", "GEOIDFQ": "0500000US51683", "GEOID": "51683", "NAME": "Manassas", "NAMELSAD": "Manassas city", "STUSPS": "VA", "STATE_NAME": "Virginia", "LSAD": "25", "ALAND": 25493247, "AWATER": 146287 }, "geometry": { "type": "Polygon", "coordinates": [ [ [ -77.526661, 38.733201 ], [ -77.525424, 38.735242 ], [ -77.519902, 38.735324 ], [ -77.52257, 38.740854 ], [ -77.512864, 38.744167 ], [ -77.513259, 38.745724 ], [ -77.512656, 38.747343 ], [ -77.510119, 38.750745 ], [ -77.50305, 38.759022 ], [ -77.502751, 38.759378 ], [ -77.50127, 38.76132 ], [ -77.495598, 38.770462 ], [ -77.494438, 38.770267 ], [ -77.493895, 38.770127 ], [ -77.490082, 38.769525 ], [ -77.487813, 38.769113 ], [ -77.483406, 38.774687 ], [ -77.478997, 38.777823 ], [ -77.478499, 38.778302 ], [ -77.475584, 38.781112 ], [ -77.474607, 38.78116 ], [ -77.469023, 38.7781 ], [ -77.465779, 38.77632 ], [ -77.459611, 38.772921 ], [ -77.459209, 38.772566 ], [ -77.458695, 38.772319 ], [ -77.460601, 38.770116 ], [ -77.457296, 38.768296 ], [ -77.454784, 38.767931 ], [ -77.456577, 38.765945 ], [ -77.447759, 38.760887 ], [ -77.449525, 38.753503 ], [ -77.450195, 38.753282 ], [ -77.449365, 38.748858 ], [ -77.451288, 38.740035 ], [ -77.451321, 38.73991 ], [ -77.451642, 38.738337 ], [ -77.453552, 38.73852 ], [ -77.453992, 38.735963 ], [ -77.458946, 38.73324 ], [ -77.459599, 38.733981 ], [ -77.462747, 38.731793 ], [ -77.471177, 38.727665 ], [ -77.472573, 38.727328 ], [ -77.473173, 38.728355 ], [ -77.480314, 38.730732 ], [ -77.480758, 38.732302 ], [ -77.485137, 38.73287 ], [ -77.488184, 38.73098 ], [ -77.490253, 38.731451 ], [ -77.490678, 38.728976 ], [ -77.493912, 38.725451 ], [ -77.499462, 38.734731 ], [ -77.49943, 38.737137 ], [ -77.501376, 38.738368 ], [ -77.506911, 38.740537 ], [ -77.513196, 38.73688 ], [ -77.514999, 38.735829 ], [ -77.512623, 38.731669 ], [ -77.513345, 38.731107 ], [ -77.508474, 38.724527 ], [ -77.507611, 38.72305 ], [ -77.508995, 38.721291 ], [ -77.507359, 38.719982 ], [ -77.505434, 38.720138 ], [ -77.50584, 38.718637 ], [ -77.502526, 38.715507 ], [ -77.502518, 38.712761 ], [ -77.503979, 38.709762 ], [ -77.505445, 38.708539 ], [ -77.506239, 38.706106 ], [ -77.513349, 38.716163 ], [ -77.515412, 38.715365 ], [ -77.517223, 38.715365 ], [ -77.519216, 38.716048 ], [ -77.521102, 38.717592 ], [ -77.523891, 38.718138 ], [ -77.522771, 38.719081 ], [ -77.521226, 38.722019 ], [ -77.521516, 38.722994 ], [ -77.524369, 38.723929 ], [ -77.524816, 38.724348 ], [ -77.524463, 38.727337 ], [ -77.526087, 38.729617 ], [ -77.526661, 38.733201 ] ], [ [ -77.481383, 38.751339 ], [ -77.47706, 38.750514 ], [ -77.477332, 38.751868 ], [ -77.475368, 38.752113 ], [ -77.475518, 38.752851 ], [ -77.478105, 38.752669 ], [ -77.477716, 38.753926 ], [ -77.481139, 38.756111 ], [ -77.481383, 38.751339 ] ] ] } },
{ "type": "Feature", "properties": { "STATEFP": "51", "COUNTYFP": "600", "COUNTYNS": "01789070", "GEOIDFQ": "0500000US51600", "GEOID": "51600", "NAME": "Fairfax", "NAMELSAD": "Fairfax city", "STUSPS": "VA", "STATE_NAME": "Virginia", "LSAD": "25", "ALAND": 16163924, "AWATER": 84155 }, "geometry": { "type": "Polygon", "coordinates": [ [ [ -77.334798, 38.853832 ], [ -77.333327, 38.85642 ], [ -77.333242, 38.856571 ], [ -77.328813, 38.863893 ], [ -77.328788, 38.864848 ], [ -77.32261, 38.865947 ], [ -77.315056, 38.866998 ], [ -77.31166, 38.866673 ], [ -77.309109, 38.865163 ], [ -77.307546, 38.863178 ], [ -77.304754, 38.863383 ], [ -77.303139, 38.869208 ], [ -77.297607, 38.870404 ], [ -77.292264, 38.871586 ], [ -77.290699, 38.870997 ], [ -77.291461, 38.868241 ], [ -77.291659, 38.867498 ], [ -77.28507, 38.86705 ], [ -77.27415, 38.86631 ], [ -77.270597, 38.866075 ], [ -77.26994, 38.86504 ], [ -77.268929, 38.862795 ], [ -77.268919, 38.862775 ], [ -77.268727, 38.859563 ], [ -77.269809, 38.855593 ], [ -77.269006, 38.852302 ], [ -77.270451, 38.851353 ], [ -77.271744, 38.848488 ], [ -77.269977, 38.843339 ], [ -77.27052, 38.840902 ], [ -77.278598, 38.841977 ], [ -77.278535, 38.840676 ], [ -77.286078, 38.841721 ], [ -77.28647, 38.838617 ], [ -77.287257, 38.836122 ], [ -77.288295, 38.836235 ], [ -77.296735, 38.837314 ], [ -77.296731, 38.835974 ], [ -77.297162, 38.834984 ], [ -77.302284, 38.83534 ], [ -77.301326, 38.833103 ], [ -77.303067, 38.832822 ], [ -77.303962, 38.836081 ], [ -77.307859, 38.835742 ], [ -77.308049, 38.83688 ], [ -77.311862, 38.836782 ], [ -77.311923, 38.835708 ], [ -77.316224, 38.836408 ], [ -77.318693, 38.835172 ], [ -77.318751, 38.841578 ], [ -77.318755, 38.842014 ], [ -77.322692, 38.843196 ], [ -77.325298, 38.846287 ], [ -77.331247, 38.847333 ], [ -77.330461, 38.848879 ], [ -77.331558, 38.851746 ], [ -77.334822, 38.851492 ], [ -77.334798, 38.853832 ] ], [ [ -77.316488, 38.845005 ], [ -77.308765, 38.84284 ], [ -77.307011, 38.845114 ], [ -77.306605, 38.846259 ], [ -77.308216, 38.846608 ], [ -77.311779, 38.846599 ], [ -77.312074, 38.845518 ], [ -77.314988, 38.845457 ], [ -77.314679, 38.84617 ], [ -77.316477, 38.846146 ], [ -77.316488, 38.845005 ] ] ] } },
{ "type": "Feature", "properties": { "STATEFP": "51", "COUNTYFP": "510", "COUNTYNS": "01498415", "GEOIDFQ": "0500000US51510", "GEOID": "51510", "NAME": "Alexandria", "NAMELSAD": "Alexandria city", "STUSPS": "VA", "STATE_NAME": "Virginia", "LSAD": "25", "ALAND": 38682331, "AWATER": 1069028 }, "geometry": { "type": "Polygon", "coordinates": [ [ [ -77.143797, 38.810658 ], [ -77.143771, 38.810773 ], [ -77.143677, 38.81296 ], [ -77.14367, 38.813588 ], [ -77.143736, 38.814195 ], [ -77.141153, 38.817404 ], [ -77.138411, 38.81874 ], [ -77.139558, 38.819575 ], [ -77.138948, 38.820071 ], [ -77.13719, 38.821502 ], [ -77.138513, 38.823884 ], [ -77.142158, 38.823813 ], [ -77.141865, 38.825424 ], [ -77.140872, 38.826905 ], [ -77.13491, 38.830813 ], [ -77.135274, 38.83216 ], [ -77.131388, 38.833331 ], [ -77.12964, 38.835131 ], [ -77.127912, 38.836938 ], [ -77.124698, 38.837595 ], [ -77.125906, 38.839346 ], [ -77.124642, 38.841376 ], [ -77.121644, 38.841356 ], [ -77.121391, 38.840544 ], [ -77.121375, 38.840492 ], [ -77.115681, 38.841947 ], [ -77.110799, 38.843446 ], [ -77.110671, 38.84342 ], [ -77.109239, 38.842819 ], [ -77.106932, 38.84244 ], [ -77.106716, 38.841934 ], [ -77.107019, 38.841366 ], [ -77.105963, 38.840082 ], [ -77.105022, 38.84081 ], [ -77.103569, 38.839881 ], [ -77.102287, 38.838456 ], [ -77.100064, 38.837176 ], [ -77.100722, 38.836343 ], [ -77.09783, 38.834874 ], [ -77.097662, 38.834775 ], [ -77.092728, 38.831188 ], [ -77.090296, 38.829202 ], [ -77.087805, 38.827357 ], [ -77.085471, 38.830263 ], [ -77.085407, 38.833862 ], [ -77.085394, 38.834792 ], [ -77.084884, 38.836211 ], [ -77.084621, 38.838532 ], [ -77.084983, 38.839519 ], [ -77.085158, 38.840425 ], [ -77.085436, 38.841856 ], [ -77.0857, 38.84296 ], [ -77.085704, 38.843965 ], [ -77.082245, 38.843433 ], [ -77.079302, 38.842926 ], [ -77.078554, 38.843672 ], [ -77.077187, 38.84369 ], [ -77.07642, 38.843551 ], [ -77.070348, 38.843957 ], [ -77.066825, 38.843899 ], [ -77.064722, 38.844677 ], [ -77.063766, 38.844909 ], [ -77.055388, 38.841064 ], [ -77.052953, 38.840355 ], [ -77.0524, 38.840445 ], [ -77.050803, 38.841465 ], [ -77.049473, 38.841341 ], [ -77.048948, 38.841256 ], [ -77.048171, 38.841259 ], [ -77.044487611898006, 38.839598699716703 ], [ -77.044999, 38.838512 ], [ -77.044899, 38.834712 ], [ -77.043499, 38.833212 ], [ -77.042599, 38.833812 ], [ -77.041199, 38.833712 ], [ -77.039199, 38.832212 ], [ -77.038560110927307, 38.830122989408103 ], [ -77.038098, 38.828612 ], [ -77.038883975818806, 38.822953760080402 ], [ -77.039098, 38.821413 ], [ -77.038788344509499, 38.819616998155098 ], [ -77.038098, 38.815613 ], [ -77.037356, 38.814187 ], [ -77.037446963170694, 38.8133980626165 ], [ -77.037999808574, 38.808603150538801 ], [ -77.038402663949796, 38.805109124730699 ], [ -77.038800581262393, 38.801657927494098 ], [ -77.038898, 38.800813 ], [ -77.038904082038201, 38.800296702537103 ], [ -77.038929172245602, 38.798166822709703 ], [ -77.038943053789396, 38.796988433879697 ], [ -77.038992785434104, 38.792766769814001 ], [ -77.039006, 38.791645 ], [ -77.039498, 38.791113 ], [ -77.040098, 38.789913 ], [ -77.040372554526996, 38.785355394851003 ], [ -77.041362, 38.785415 ], [ -77.051365, 38.789938 ], [ -77.052685, 38.790764 ], [ -77.056524, 38.792465 ], [ -77.05984, 38.794048 ], [ -77.060829, 38.794402 ], [ -77.062469, 38.794959 ], [ -77.063614, 38.79535 ], [ -77.063031, 38.796424 ], [ -77.071497, 38.799635 ], [ -77.077475, 38.80081 ], [ -77.077701, 38.800837 ], [ -77.087415, 38.801999 ], [ -77.09122, 38.802462 ], [ -77.099136, 38.803397 ], [ -77.10383, 38.803476 ], [ -77.108328, 38.802983 ], [ -77.112205, 38.802071 ], [ -77.112891, 38.802822 ], [ -77.117292, 38.801392 ], [ -77.121, 38.800529 ], [ -77.134491, 38.798603 ], [ -77.137562, 38.798169 ], [ -77.137742, 38.800757 ], [ -77.140034, 38.800587 ], [ -77.142704, 38.805703 ], [ -77.143724, 38.807789 ], [ -77.144359, 38.810357 ], [ -77.143797, 38.810658 ] ] ] } },
{ "type": "Feature", "properties": { "STATEFP": "51", "COUNTYFP": "610", "COUNTYNS": "01498423", "GEOIDFQ": "0500000US51610", "GEOID": "51610", "NAME": "Falls Church", "NAMELSAD": "Falls Church city", "STUSPS": "VA", "STATE_NAME": "Virginia", "LSAD": "25", "ALAND": 5300262, "AWATER": 32 }, "geometry": { "type": "Polygon", "coordinates": [ [ [ -77.194712, 38.899073 ], [ -77.191266, 38.899723 ], [ -77.191432, 38.897799 ], [ -77.18882, 38.896266 ], [ -77.175749, 38.893879 ], [ -77.175128, 38.893765 ], [ -77.172276, 38.893245 ], [ -77.172192, 38.893166 ], [ -77.165947, 38.888287 ], [ -77.163517, 38.886391 ], [ -77.159213, 38.883035 ], [ -77.15395, 38.878935 ], [ -77.153842, 38.878851 ], [ -77.149701, 38.87567 ], [ -77.149789, 38.873362 ], [ -77.153711, 38.872715 ], [ -77.155906, 38.872626 ], [ -77.158404, 38.874235 ], [ -77.16044, 38.873925 ], [ -77.163322, 38.874975 ], [ -77.167506, 38.876508 ], [ -77.17374, 38.878724 ], [ -77.178049, 38.879295 ], [ -77.178693, 38.879379 ], [ -77.179028, 38.87942 ], [ -77.182197, 38.879032 ], [ -77.18464, 38.878923 ], [ -77.187839, 38.87875 ], [ -77.189754, 38.878136 ], [ -77.192579, 38.883124 ], [ -77.194257, 38.886114 ], [ -77.191302, 38.891672 ], [ -77.19227, 38.892783 ], [ -77.189922, 38.894267 ], [ -77.189854, 38.894395 ], [ -77.194949, 38.898171 ], [ -77.194712, 38.899073 ] ] ] } },
{ "type": "Feature", "properties": { "STATEFP": "51", "COUNTYFP": "013", "COUNTYNS": "01480097", "GEOIDFQ": "0500000US51013", "GEOID": "51013", "NAME": "Arlington", "NAMELSAD": "Arlington County", "STUSPS": "VA", "STATE_NAME": "Virginia", "LSAD": "06", "ALAND": 67332991, "AWATER": 273562 }, "geometry": { "type": "Polygon", "coordinates": [ [ [ -77.172276, 38.893245 ], [ -77.16811, 38.896521 ], [ -77.164208, 38.899578 ], [ -77.159681, 38.903147 ], [ -77.151977, 38.909177 ], [ -77.145809, 38.914006 ], [ -77.139427, 38.918982 ], [ -77.134495, 38.922853 ], [ -77.121179, 38.933287 ], [ -77.119796691084105, 38.934370237359602 ], [ -77.119759, 38.934343 ], [ -77.1179, 38.932411 ], [ -77.116816261811707, 38.929493243339202 ], [ -77.1166, 38.928911 ], [ -77.1134, 38.925211 ], [ -77.107360506400894, 38.920022139302198 ], [ -77.1063, 38.919111 ], [ -77.105402436072595, 38.917192070224097 ], [ -77.1034, 38.912911 ], [ -77.101644599415195, 38.911474763157898 ], [ -77.1012, 38.911111 ], [ -77.1010155931084, 38.910983144555203 ], [ -77.0937, 38.905911 ], [ -77.0902, 38.904211 ], [ -77.082839211732306, 38.902094773373001 ], [ -77.0822, 38.901911 ], [ -77.079297390379907, 38.9016231616772 ], [ -77.0783563148089, 38.901529839581102 ], [ -77.073498848472894, 38.901048147191801 ], [ -77.070667771104198, 38.900767402390301 ], [ -77.070621701792803, 38.900762833910498 ], [ -77.070099, 38.900711 ], [ -77.069371196832606, 38.900366251131203 ], [ -77.068199, 38.899811 ], [ -77.067299, 38.899211 ], [ -77.064657944525507, 38.891843845255501 ], [ -77.063499, 38.888611 ], [ -77.058254, 38.880069 ], [ -77.055199, 38.880012 ], [ -77.054099, 38.879112 ], [ -77.051099, 38.875212 ], [ -77.051299, 38.873212 ], [ -77.049099, 38.870712 ], [ -77.046299, 38.871312 ], [ -77.045599, 38.873012 ], [ -77.046599, 38.874912 ], [ -77.045399, 38.875212 ], [ -77.043780739130398, 38.8742872795031 ], [ -77.043454092682893, 38.874100624390202 ], [ -77.043299, 38.874012 ], [ -77.041092657783807, 38.871723941405399 ], [ -77.040599, 38.871212 ], [ -77.039099, 38.868112 ], [ -77.038899, 38.865812 ], [ -77.039299, 38.864312 ], [ -77.034004, 38.857142 ], [ -77.031831738380106, 38.850896512341599 ], [ -77.031698, 38.850512 ], [ -77.033372501691005, 38.844599118369104 ], [ -77.034541, 38.840473 ], [ -77.038549, 38.839262 ], [ -77.041699, 38.840212 ], [ -77.044199, 38.840212 ], [ -77.044487611898006, 38.839598699716703 ], [ -77.048171, 38.841259 ], [ -77.048948, 38.841256 ], [ -77.049473, 38.841341 ], [ -77.050803, 38.841465 ], [ -77.0524, 38.840445 ], [ -77.052953, 38.840355 ], [ -77.055388, 38.841064 ], [ -77.063766, 38.844909 ], [ -77.064722, 38.844677 ], [ -77.066825, 38.843899 ], [ -77.070348, 38.843957 ], [ -77.07642, 38.843551 ], [ -77.077187, 38.84369 ], [ -77.078554, 38.843672 ], [ -77.079302, 38.842926 ], [ -77.082245, 38.843433 ], [ -77.085704, 38.843965 ], [ -77.0857, 38.84296 ], [ -77.085436, 38.841856 ], [ -77.085158, 38.840425 ], [ -77.084983, 38.839519 ], [ -77.084621, 38.838532 ], [ -77.084884, 38.836211 ], [ -77.085394, 38.834792 ], [ -77.085407, 38.833862 ], [ -77.085471, 38.830263 ], [ -77.087805, 38.827357 ], [ -77.090296, 38.829202 ], [ -77.092728, 38.831188 ], [ -77.097662, 38.834775 ], [ -77.09783, 38.834874 ], [ -77.100722, 38.836343 ], [ -77.100064, 38.837176 ], [ -77.102287, 38.838456 ], [ -77.103569, 38.839881 ], [ -77.105022, 38.84081 ], [ -77.105963, 38.840082 ], [ -77.107019, 38.841366 ], [ -77.106716, 38.841934 ], [ -77.106932, 38.84244 ], [ -77.109239, 38.842819 ], [ -77.110671, 38.84342 ], [ -77.110799, 38.843446 ], [ -77.110183, 38.844795 ], [ -77.113365, 38.847382 ], [ -77.11758, 38.850495 ], [ -77.118876, 38.851563 ], [ -77.121151, 38.853325 ], [ -77.123609, 38.855305 ], [ -77.127183, 38.858109 ], [ -77.131849, 38.861727 ], [ -77.137495, 38.866093 ], [ -77.137631, 38.866199 ], [ -77.145206, 38.872108 ], [ -77.146793, 38.873341 ], [ -77.14713, 38.873606 ], [ -77.149701, 38.87567 ], [ -77.153842, 38.878851 ], [ -77.15395, 38.878935 ], [ -77.159213, 38.883035 ], [ -77.163517, 38.886391 ], [ -77.165947, 38.888287 ], [ -77.172192, 38.893166 ], [ -77.172276, 38.893245 ] ] ] } }
]
}
